,Postcode,latitude,longitude,Straat,Netnummer,Postcodenummer,Buurt,Wijk,Plaats,Gemeente,Provincie
0,3112 DA,51.917042141489,4.4067373859668,"
Archimedesstraat 3 - 21 

",010,3112,Natuurkundigenbuurt,Wijk 01 Oost,Schiedam,Schiedam,Zuid-Holland
0,6411 HG,50.886440565942,5.9792457904911,"
Dr. Poelsstraat 1 - 85 

",045,6411,Heerlen-Centrum,Wijk 33 Heerlen-Centrum,Heerlen,Heerlen,Limburg
0,1051 VC,52.384301879385,4.872817148908,"
Van der Hoopstraat 61 - 81 

",020,1051,Fannius Scholtenbuurt,Staatsliedenbuurt,Amsterdam,Amsterdam,Noord-Holland
0,1171 VT,52.341349146916,4.7786510608541,"
Einsteinlaan 193 - 239 

",020,1171,Badhoevedorp West,Badhoevedorp,Badhoevedorp,Haarlemmermeer,Noord-Holland
0,5701 JV,51.48169286027,5.6676630760178,"
Pastoor van Leeuwenstraat 2 - 46 

",0492,5701,Heipoort,Wijk 10 Binnenstad,Helmond,Helmond,Noord-Brabant
0,1012 SP,52.377050314659,4.8941770610497,"
Spuistraat 1 - 19 

",020,1012,Hemelrijk,Burgwallen-Nieuwe Zijde,Amsterdam,Amsterdam,Noord-Holland
0,2215 JX,52.227637815142,4.4876100954033,"
Rossinipad 1 - 36 

",0252,2215,Hoogh Teylingen,Wijk 01 Voorhout,Voorhout,Teylingen,Zuid-Holland
0,3743 BJ,52.21256387375,5.2840228590206,"
Laanstraat 104 - 132 

",035,3743,Centrum,Wijk 00 Baarn,Baarn,Baarn,Utrecht
