,Postcode,latitude,longitude,Straat,Netnummer,Postcodenummer,Buurt,Wijk,Plaats,Gemeente,Provincie
0,6211 EA,50.849139627305,5.6897604300767,"
Leliestraat 3 - 30 

",043,6211,Binnenstad,Wijk 00 Centrum,Maastricht,Maastricht,Limburg
0,7333 CV,52.189852635772,5.9649898535683,"
Schubertlaan 2 - 28 

",055,7333,Componistenkwartier,Zuid,Apeldoorn,Apeldoorn,Gelderland
0,2106 AN,52.360077824624,4.6062207522528,"
Zandvoortselaan 138 - 156 

",023,2106,Dichters- en Vogelbuurt,Wijk 02 Heemstede west van de spoorbaan,Heemstede,Heemstede,Noord-Holland
0,1012 BP,52.373158341586,4.8996415392972,"
Monnikenstraat 1 - 29 

",020,1012,Burgwallen Oost,Burgwallen-Oude Zijde,Amsterdam,Amsterdam,Noord-Holland
0,1501 ND,52.439982926526,4.8258830715089,"
Oostkade 5 - 32 

",075,1501,Burgemeestersbuurt,Wijk 11 Zaandam Zuid,Zaandam,Zaanstad,Noord-Holland
0,2611 BA,52.00600928181,4.3602610552694,"
Oude Delft 1 - 17 

",015,2611,Centrum-Zuidwest,Wijk 11 Binnenstad,Delft,Delft,Zuid-Holland
0,5224 EV,51.695740925294,5.2509165915797,"
Admiraliteitslaan 828 - 900 

",073,5224,De Kruiskamp,West,'s-Hertogenbosch,'s-Hertogenbosch,Noord-Brabant
0,2596 EH,52.092608466305,4.3227737316766,"
Johannes Bildersstraat 2 - 32 

",070,2596,Van Hoytemastraat en omgeving,Wijk 04 Benoordenhout,Den Haag,'s-Gravenhage,Zuid-Holland
0,8226 AB,52.497468498979,5.4908209386884,"
Sont 2 - 70 

",0320,8226,Zeeenbuurt,Waterwijk,Lelystad,Lelystad,Flevoland
