,Postcode,latitude,longitude,Straat,Netnummer,Postcodenummer,Buurt,Wijk,Plaats,Gemeente,Provincie,Straten
0,6211 EA,50.849139627305,5.6897604300767,"
Leliestraat 3 - 30 

",043,6211,Binnenstad,Wijk 00 Centrum,Maastricht,Maastricht,Limburg,
0,7333 CV,52.189852635772,5.9649898535683,"
Schubertlaan 2 - 28 

",055,7333,Componistenkwartier,Zuid,Apeldoorn,Apeldoorn,Gelderland,
0,2106 AN,52.360077824624,4.6062207522528,"
Zandvoortselaan 138 - 156 

",023,2106,Dichters- en Vogelbuurt,Wijk 02 Heemstede west van de spoorbaan,Heemstede,Heemstede,Noord-Holland,
0,1012 BP,52.373158341586,4.8996415392972,"
Monnikenstraat 1 - 29 

",020,1012,Burgwallen Oost,Burgwallen-Oude Zijde,Amsterdam,Amsterdam,Noord-Holland,
0,1501 ND,52.439982926526,4.8258830715089,"
Oostkade 5 - 32 

",075,1501,Burgemeestersbuurt,Wijk 11 Zaandam Zuid,Zaandam,Zaanstad,Noord-Holland,
0,2611 BA,52.00600928181,4.3602610552694,"
Oude Delft 1 - 17 

",015,2611,Centrum-Zuidwest,Wijk 11 Binnenstad,Delft,Delft,Zuid-Holland,
0,5224 EV,51.695740925294,5.2509165915797,"
Admiraliteitslaan 828 - 900 

",073,5224,De Kruiskamp,West,'s-Hertogenbosch,'s-Hertogenbosch,Noord-Brabant,
0,2596 EH,52.092608466305,4.3227737316766,"
Johannes Bildersstraat 2 - 32 

",070,2596,Van Hoytemastraat en omgeving,Wijk 04 Benoordenhout,Den Haag,'s-Gravenhage,Zuid-Holland,
0,8226 AB,52.497468498979,5.4908209386884,"
Sont 2 - 70 

",0320,8226,Zeeenbuurt,Waterwijk,Lelystad,Lelystad,Flevoland,
0,7607 EC,52.357381981817,6.6641324622069,"
Hagengracht 1 - 25 

",0546,7607,Binnenstad-Noord,Wijk 10 Binnenstad,Almelo,Almelo,Overijssel,
0,5658 EB,51.440001734469,5.411374722789,"
Grasvink 1 - 59 

",040,5658,Grasrijk,Wijk 16 Stadsdeel Strijp,Eindhoven,Eindhoven,Noord-Brabant,
0,2406 DZ,52.129018245237,4.6637698292188,"
Samuel Aardewerksteeg 10 - 12 

",0172,2406,Van Boetzelaerstraat,Lage Zijde,Alphen aan den Rijn,Alphen aan den Rijn,Zuid-Holland,
0,3581 KR,52.09062111127,5.1339685264606,"
Burgemeester Reigerstraat 2 - 12 

",030,3581,Buiten Wittevrouwen,Wijk 05 Oost,Utrecht,Utrecht,Utrecht,
0,3543 KB,52.099791873829,5.0640816872953,"
Reykjavikstraat 2 - 600 

",030,3543,Leidsche Rijn-Centrum,Wijk 09 Leidsche Rijn,Utrecht,Utrecht,Utrecht,
0,2102 LC,52.346761318555,4.6247806786475,"
Waterhof 1 - 63 

",023,2102,"Heemsteedse Dreef, Schildersbuurt en omgeving",Wijk 00 Heemstede-Centrum,Heemstede,Heemstede,Noord-Holland,
0,1073 LJ,52.350159897299,4.9017389040388,"
Cornelis Springerstraat 14 - 24 

",020,1073,Burgemeester Tellegenbuurt Oost,Zuid Pijp,Amsterdam,Amsterdam,Noord-Holland,
0,1112 EM,52.338338462225,4.9537994453659,"
Bomenrijk 59 - 115 

",020,1112,Bomenrijk,Wijk 00 Diemen-Zuid,Diemen,Diemen,Noord-Holland,
0,1076 TN,52.347535381286,4.8604312325404,"
Sportstraat 1 - 13 

",020,1076,Marathonbuurt West,Stadionbuurt,Amsterdam,Amsterdam,Noord-Holland,
0,1813 CX,52.619478874896,4.7556221485086,"
Tuinderspad 1 - 157 

",072,1813,Oosterhout,Overdie,Alkmaar,Alkmaar,Noord-Holland,
0,1087 CN,52.356952721995,4.9935049285247,"
Tuinderspad 1 - 157 

",020,1087,Haveneiland Noordoost,IJburg West,Amsterdam,Amsterdam,Noord-Holland,"
Talbotstraat 5 - 19 

Maria Austriastraat 54 - 126 

"
0,2312 XV,52.162113237952,4.4930473651537,"
Oude Vest 99 - 121 

",071,2312,Marewijk,Binnenstad-Noord,Leiden,Leiden,Zuid-Holland,"
Talbotstraat 5 - 19 

Maria Austriastraat 54 - 126 

"
0,9731 NA,53.22494216155,6.598784924865,"
Regattaweg 18 - 102 

",050,9731,Oosterhoogebrug,Noorddijk e.o.,Groningen,Groningen,Groningen,"
Talbotstraat 5 - 19 

Maria Austriastraat 54 - 126 

"
0,1521 AA,52.488972223733,4.7959093543114,"
Wandelweg 1 - 25 

",075,1521,Wormerveer Zuid,Wijk 51 Wormerveer,Wormerveer,Zaanstad,Noord-Holland,"
Talbotstraat 5 - 19 

Maria Austriastraat 54 - 126 

"
0,1811 CT,52.630889902057,4.7446717593075,"
Ruitersteeg 1 - 31 

",072,1811,Binnenstad-West,Centrum,Alkmaar,Alkmaar,Noord-Holland,"
Talbotstraat 5 - 19 

Maria Austriastraat 54 - 126 

"
0,3512 HJ,52.092046292927,5.1255016027279,"
Kromme Nieuwegracht 24 - 48 

",030,3512,Nobelstraat en omgeving,Wijk 06 Binnenstad,Utrecht,Utrecht,Utrecht,"
Talbotstraat 5 - 19 

Maria Austriastraat 54 - 126 

"
0,1087 LN,52.349207716417,5.0117737703813,"
Ben van Meerendonkstraat 130 - 321 

",020,1087,Haveneiland Oost,IJburg Zuid,Amsterdam,Amsterdam,Noord-Holland,"
Talbotstraat 5 - 19 

Maria Austriastraat 54 - 126 

"
0,6621 AK,51.849629759405,5.4314358727207,"
Rooijsestraat 63 - 89 

",0487,6621,Kern Dreumel,Wijk 06 Dreumel,Dreumel,West Maas en Waal,Gelderland,"
Talbotstraat 5 - 19 

Maria Austriastraat 54 - 126 

"
0,5038 BM,51.558399921483,5.08849504449,"
Telegraafstraat 2 - 62 

",013,5038,Binnenstad Oost,Binnenstad,Tilburg,Tilburg,Noord-Brabant,"
Talbotstraat 5 - 19 

Maria Austriastraat 54 - 126 

"
0,3038 BK,51.934912176222,4.4637980412983,"
Schieweg 174 - 184 

",010,3038,Bergpolder,Noord,Rotterdam,Rotterdam,Zuid-Holland,"
Talbotstraat 5 - 19 

Maria Austriastraat 54 - 126 

"
0,3083 NT,51.886318759924,4.4838838980944,"
Walchersestraat 100 - 118 

",010,3083,Carnisse,Charlois,Rotterdam,Rotterdam,Zuid-Holland,"
Talbotstraat 5 - 19 

Maria Austriastraat 54 - 126 

"
0,3023 AP,51.916361985976,4.450919163334,"
Vierambachtsstraat 40 - 60 

",010,3023,Nieuwe Westen,Delfshaven,Rotterdam,Rotterdam,Zuid-Holland,"
Talbotstraat 5 - 19 

Maria Austriastraat 54 - 126 

"
0,2513 EJ,52.078612479201,4.2990674462097,"
Veenkade 67 - 98 

",070,2513,Zeeheldenkwartier,Wijk 22 Zeeheldenkwartier,Den Haag,'s-Gravenhage,Zuid-Holland,"
Talbotstraat 5 - 19 

Maria Austriastraat 54 - 126 

"
0,3601 TB,52.148966803183,5.0434987249321,"
Piet Heinstraat 86 - 132 

",0346,3601,Zeeheldenbuurt,Wijk 01 Maarssen,Maarssen,Stichtse Vecht,Utrecht,"
Talbotstraat 5 - 19 

Maria Austriastraat 54 - 126 

"
0,1011 PG,52.367469338231,4.9023764442612,"
Waterlooplein 2 - 409 

",020,1011,Waterloopleinbuurt,Nieuwmarkt/Lastage,Amsterdam,Amsterdam,Noord-Holland,"
Talbotstraat 5 - 19 

Maria Austriastraat 54 - 126 

"
0,4225 NJ,51.882902805117,4.9279657303252,"
Overslingeland 1 - 15 

",0183,4225,Overslingeland,Wijk 07 Noordeloos,Noordeloos,Molenlanden,Zuid-Holland,"
Talbotstraat 5 - 19 

Maria Austriastraat 54 - 126 

"
0,2572 HB,52.061726925974,4.2919736084487,"
Vrijstaathof 2 - 42 

",070,2572,Transvaalkwartier-Zuid,Wijk 30 Transvaalkwartier,Den Haag,'s-Gravenhage,Zuid-Holland,"
Talbotstraat 5 - 19 

Maria Austriastraat 54 - 126 

"
0,4812 PG,51.578358634166,4.7520466813525,"
Heuvelstraat 3 - 29 

",076,4812,Princenhage,Breda West,Breda,Breda,Noord-Brabant,"
Talbotstraat 5 - 19 

Maria Austriastraat 54 - 126 

"
0,2516 XN,52.060303832991,4.3354210325468,"
Drijfriemstraat 67 - 103 

",070,2516,Noordpolderbuurt,Wijk 38 Laakkwartier en Spoorwijk,Den Haag,'s-Gravenhage,Zuid-Holland,"
Talbotstraat 5 - 19 

Maria Austriastraat 54 - 126 

"
0,3438 AA,52.037797293833,5.091720909474,"
Nedereindseweg 1 - 43 

",030,3438,Jutphaas Wijkersloot,Jutphaas Wijkersloot,Nieuwegein,Nieuwegein,Utrecht,"
Talbotstraat 5 - 19 

Maria Austriastraat 54 - 126 

"
0,3012 BB,51.913879311349,4.4785736552939,"
Schiedamsesingel 149 - 189 

",010,3012,Cool,Rotterdam Centrum,Rotterdam,Rotterdam,Zuid-Holland,"
Talbotstraat 5 - 19 

Maria Austriastraat 54 - 126 

"
0,3038 CD,51.933709230458,4.4645634537462,"
Bergselaan 271 - 281 

",010,3038,Bergpolder,Noord,Rotterdam,Rotterdam,Zuid-Holland,"
Talbotstraat 5 - 19 

Maria Austriastraat 54 - 126 

"
0,5233 BE,51.71378662355,5.3219027741591,"
Tweede Haren 71 - 111 

",073,5233,De Haren,Noord,'s-Hertogenbosch,'s-Hertogenbosch,Noord-Brabant,"
Talbotstraat 5 - 19 

Maria Austriastraat 54 - 126 

"
0,8011 MK,52.512554757106,6.0903240273793,"
Voorstraat 1 - 43 

",038,8011,Binnenstad-Zuid,Wijk 10 Binnenstad,Zwolle,Zwolle,Overijssel,"
Talbotstraat 5 - 19 

Maria Austriastraat 54 - 126 

"
0,1017 KV,52.361979596841,4.8913978067836,"
Prinsengracht 638 - 652 

",020,1017,Weteringbuurt,De Weteringschans,Amsterdam,Amsterdam,Noord-Holland,"
Talbotstraat 5 - 19 

Maria Austriastraat 54 - 126 

"
0,3816 TD,52.153011081504,5.4150314967229,"
Schuilenburgerplein 1 - 1 

",033,3816,Verdiweg,Wijk 13 Schuilenburg,Amersfoort,Amersfoort,Utrecht,"
Talbotstraat 5 - 19 

Maria Austriastraat 54 - 126 

"
0,3721 AT,52.125846601387,5.2004235149225,"
Prins Hendriklaan 28 - 76 

",030,3721,Bilthoven Zuid West,Bilthoven Zuid West,Bilthoven,De Bilt,Utrecht,"
Talbotstraat 5 - 19 

Maria Austriastraat 54 - 126 

"
0,1078 RT,52.347686345731,4.9110650856361,"
Amsteldijk 127 - 134 

",020,1078,IJselbuurt Oost,IJselbuurt,Amsterdam,Amsterdam,Noord-Holland,"
Talbotstraat 5 - 19 

Maria Austriastraat 54 - 126 

"
0,2013 PH,52.381464049173,4.6212083725724,"
Brouwersplein 31 - 45 

",023,2013,Leidsebuurt-west,Zijlwegkwartier,Haarlem,Haarlem,Noord-Holland,"
Talbotstraat 5 - 19 

Maria Austriastraat 54 - 126 

"
0,3769 AB,52.121101236719,5.2868769408335,"
Brouwersplein 31 - 45 

",0346,3769,Soesterberg Oost,Wijk 08 Soesterberg,Soesterberg,Soest,Utrecht,"
Banningstraat 2 - 8 

Zuiderweg 1 - 25 

"
0,5021 DM,51.54894468308,5.0977248874231,"
Blazoenstraat 2 - 40 

",013,5021,Fatima West,Fatima,Tilburg,Tilburg,Noord-Brabant,"
Banningstraat 2 - 8 

Zuiderweg 1 - 25 

"
0,9718 CE,53.218102246119,6.5565495448279,"
Westersingel 47 - 49 

",050,9718,Binnenstad-West,Centrum,Groningen,Groningen,Groningen,"
Banningstraat 2 - 8 

Zuiderweg 1 - 25 

"
0,9741 CZ,53.23053782478,6.5531489303295,"
Vindicatstraat 20 - 52 

",050,9741,Tuinwijk,Noordwest,Groningen,Groningen,Groningen,"
Banningstraat 2 - 8 

Zuiderweg 1 - 25 

"
0,5211 MT,51.688651177681,5.3108197141666,"
Hinthamerstraat 106 - 154 

",073,5211,Binnenstad-Oost,Binnenstad,'s-Hertogenbosch,'s-Hertogenbosch,Noord-Brabant,"
Banningstraat 2 - 8 

Zuiderweg 1 - 25 

"
0,1705 SR,52.645172042186,4.8059670861495,"
Keerkring 2 - 46 

",072,1705,Stad van de Zon,Wijk 17 Stad van de Zon,Heerhugowaard,Heerhugowaard,Noord-Holland,"
Banningstraat 2 - 8 

Zuiderweg 1 - 25 

"
0,2517 TS,52.082889605177,4.2791532053527,"
2e Schuytstraat 228 - 272 

",070,2517,Sweelinckplein en omgeving,Wijk 11 Duinoord,Den Haag,'s-Gravenhage,Zuid-Holland,"
Banningstraat 2 - 8 

Zuiderweg 1 - 25 

"
0,5501 EX,51.418542055239,5.4038903434051,"
De Bussels 30 - 58 

",040,5501,Cobbeek en Centrum,Wijk 00 Veldhoven,Veldhoven,Veldhoven,Noord-Brabant,"
Banningstraat 2 - 8 

Zuiderweg 1 - 25 

"
0,7555 DH,52.259959799959,6.7754421600026,"
Geerdinksweg 41 - 65 

",074,7555,Nijverheid,Wijk 06 Wilderinkshoek,Hengelo,Hengelo,Overijssel,"
Banningstraat 2 - 8 

Zuiderweg 1 - 25 

"
0,7607 PT,52.352021002612,6.6785080836533,"
Geerdinksweg 41 - 65 

",0546,7607,Paradijs,Wijk 17 Hofkamp,Almelo,Almelo,Overijssel,"
Laan van Iserlohn 1 - 1 

Laan van Kortrijk 2 - 133 

"
0,3033 GA,51.927547719871,4.4665727864434,"
Hoevestraat 3 - 23 

",010,3033,Provenierswijk,Noord,Rotterdam,Rotterdam,Zuid-Holland,"
Laan van Iserlohn 1 - 1 

Laan van Kortrijk 2 - 133 

"
0,1071 JG,52.353845743263,4.8724517241821,"
Cornelis Schuytstraat 45 - 69 

",020,1071,Cornelis Schuytbuurt,Museumkwartier,Amsterdam,Amsterdam,Noord-Holland,"
Laan van Iserlohn 1 - 1 

Laan van Kortrijk 2 - 133 

"
0,1071 GJ,52.357897974733,4.8747301682545,"
Van Eeghenstraat 44 - 60 

",020,1071,Concertgebouwbuurt,Museumkwartier,Amsterdam,Amsterdam,Noord-Holland,"
Laan van Iserlohn 1 - 1 

Laan van Kortrijk 2 - 133 

"
0,2512 PD,52.070462496578,4.2938551196974,"
Monstersestraat 122 - 164 

",070,2512,Schildersbuurt-West,Wijk 29 Schildersbuurt,Den Haag,'s-Gravenhage,Zuid-Holland,"
Laan van Iserlohn 1 - 1 

Laan van Kortrijk 2 - 133 

"
0,9711 NN,53.217753472279,6.5690435976775,"
Oosterstraat 1 - 25 

",050,9711,Binnenstad-Zuid,Centrum,Groningen,Groningen,Groningen,"
Laan van Iserlohn 1 - 1 

Laan van Kortrijk 2 - 133 

"
0,6224 GP,50.849929230786,5.7123645830922,"
Frankenstraat 175 - 207 

",043,6224,Wittevrouwenveld,Wijk 04 Buitenwijk Oost,Maastricht,Maastricht,Limburg,"
Laan van Iserlohn 1 - 1 

Laan van Kortrijk 2 - 133 

"
0,2563 RH,52.068353005011,4.2702577164283,"
Indigostraat 91 - 129 

",070,2563,Heesterbuurt,Wijk 20 Valkenboskwartier,Den Haag,'s-Gravenhage,Zuid-Holland,"
Laan van Iserlohn 1 - 1 

Laan van Kortrijk 2 - 133 

"
0,5216 BC,51.68266557922,5.3101068882667,"
Hertog Hendriksingel 50 - 72 

",073,5216,Zuid,Zuidoost,'s-Hertogenbosch,'s-Hertogenbosch,Noord-Brabant,"
Laan van Iserlohn 1 - 1 

Laan van Kortrijk 2 - 133 

"
