,Postcode,latitude,longitude,Straat,Netnummer,Postcodenummer,Buurt,Wijk,Plaats,Gemeente,Provincie,Straten
0,6211 EA,50.849139627305,5.6897604300767,"
Leliestraat 3 - 30 

",043,6211,Binnenstad,Wijk 00 Centrum,Maastricht,Maastricht,Limburg,
0,7333 CV,52.189852635772,5.9649898535683,"
Schubertlaan 2 - 28 

",055,7333,Componistenkwartier,Zuid,Apeldoorn,Apeldoorn,Gelderland,
0,2106 AN,52.360077824624,4.6062207522528,"
Zandvoortselaan 138 - 156 

",023,2106,Dichters- en Vogelbuurt,Wijk 02 Heemstede west van de spoorbaan,Heemstede,Heemstede,Noord-Holland,
0,1012 BP,52.373158341586,4.8996415392972,"
Monnikenstraat 1 - 29 

",020,1012,Burgwallen Oost,Burgwallen-Oude Zijde,Amsterdam,Amsterdam,Noord-Holland,
0,1501 ND,52.439982926526,4.8258830715089,"
Oostkade 5 - 32 

",075,1501,Burgemeestersbuurt,Wijk 11 Zaandam Zuid,Zaandam,Zaanstad,Noord-Holland,
0,2611 BA,52.00600928181,4.3602610552694,"
Oude Delft 1 - 17 

",015,2611,Centrum-Zuidwest,Wijk 11 Binnenstad,Delft,Delft,Zuid-Holland,
0,5224 EV,51.695740925294,5.2509165915797,"
Admiraliteitslaan 828 - 900 

",073,5224,De Kruiskamp,West,'s-Hertogenbosch,'s-Hertogenbosch,Noord-Brabant,
0,2596 EH,52.092608466305,4.3227737316766,"
Johannes Bildersstraat 2 - 32 

",070,2596,Van Hoytemastraat en omgeving,Wijk 04 Benoordenhout,Den Haag,'s-Gravenhage,Zuid-Holland,
0,8226 AB,52.497468498979,5.4908209386884,"
Sont 2 - 70 

",0320,8226,Zeeenbuurt,Waterwijk,Lelystad,Lelystad,Flevoland,
0,7607 EC,52.357381981817,6.6641324622069,"
Hagengracht 1 - 25 

",0546,7607,Binnenstad-Noord,Wijk 10 Binnenstad,Almelo,Almelo,Overijssel,
0,5658 EB,51.440001734469,5.411374722789,"
Grasvink 1 - 59 

",040,5658,Grasrijk,Wijk 16 Stadsdeel Strijp,Eindhoven,Eindhoven,Noord-Brabant,
0,2406 DZ,52.129018245237,4.6637698292188,"
Samuel Aardewerksteeg 10 - 12 

",0172,2406,Van Boetzelaerstraat,Lage Zijde,Alphen aan den Rijn,Alphen aan den Rijn,Zuid-Holland,
0,3581 KR,52.09062111127,5.1339685264606,"
Burgemeester Reigerstraat 2 - 12 

",030,3581,Buiten Wittevrouwen,Wijk 05 Oost,Utrecht,Utrecht,Utrecht,
0,3543 KB,52.099791873829,5.0640816872953,"
Reykjavikstraat 2 - 600 

",030,3543,Leidsche Rijn-Centrum,Wijk 09 Leidsche Rijn,Utrecht,Utrecht,Utrecht,
0,2102 LC,52.346761318555,4.6247806786475,"
Waterhof 1 - 63 

",023,2102,"Heemsteedse Dreef, Schildersbuurt en omgeving",Wijk 00 Heemstede-Centrum,Heemstede,Heemstede,Noord-Holland,
0,1073 LJ,52.350159897299,4.9017389040388,"
Cornelis Springerstraat 14 - 24 

",020,1073,Burgemeester Tellegenbuurt Oost,Zuid Pijp,Amsterdam,Amsterdam,Noord-Holland,
0,1112 EM,52.338338462225,4.9537994453659,"
Bomenrijk 59 - 115 

",020,1112,Bomenrijk,Wijk 00 Diemen-Zuid,Diemen,Diemen,Noord-Holland,
0,1076 TN,52.347535381286,4.8604312325404,"
Sportstraat 1 - 13 

",020,1076,Marathonbuurt West,Stadionbuurt,Amsterdam,Amsterdam,Noord-Holland,
0,1813 CX,52.619478874896,4.7556221485086,"
Tuinderspad 1 - 157 

",072,1813,Oosterhout,Overdie,Alkmaar,Alkmaar,Noord-Holland,
0,1087 CN,52.356952721995,4.9935049285247,"
Tuinderspad 1 - 157 

",020,1087,Haveneiland Noordoost,IJburg West,Amsterdam,Amsterdam,Noord-Holland,"
Talbotstraat 5 - 19 

Maria Austriastraat 54 - 126 

"
0,2312 XV,52.162113237952,4.4930473651537,"
Oude Vest 99 - 121 

",071,2312,Marewijk,Binnenstad-Noord,Leiden,Leiden,Zuid-Holland,"
Talbotstraat 5 - 19 

Maria Austriastraat 54 - 126 

"
0,9731 NA,53.22494216155,6.598784924865,"
Regattaweg 18 - 102 

",050,9731,Oosterhoogebrug,Noorddijk e.o.,Groningen,Groningen,Groningen,"
Talbotstraat 5 - 19 

Maria Austriastraat 54 - 126 

"
0,1521 AA,52.488972223733,4.7959093543114,"
Wandelweg 1 - 25 

",075,1521,Wormerveer Zuid,Wijk 51 Wormerveer,Wormerveer,Zaanstad,Noord-Holland,"
Talbotstraat 5 - 19 

Maria Austriastraat 54 - 126 

"
0,1811 CT,52.630889902057,4.7446717593075,"
Ruitersteeg 1 - 31 

",072,1811,Binnenstad-West,Centrum,Alkmaar,Alkmaar,Noord-Holland,"
Talbotstraat 5 - 19 

Maria Austriastraat 54 - 126 

"
0,3512 HJ,52.092046292927,5.1255016027279,"
Kromme Nieuwegracht 24 - 48 

",030,3512,Nobelstraat en omgeving,Wijk 06 Binnenstad,Utrecht,Utrecht,Utrecht,"
Talbotstraat 5 - 19 

Maria Austriastraat 54 - 126 

"
0,1087 LN,52.349207716417,5.0117737703813,"
Ben van Meerendonkstraat 130 - 321 

",020,1087,Haveneiland Oost,IJburg Zuid,Amsterdam,Amsterdam,Noord-Holland,"
Talbotstraat 5 - 19 

Maria Austriastraat 54 - 126 

"
0,6621 AK,51.849629759405,5.4314358727207,"
Rooijsestraat 63 - 89 

",0487,6621,Kern Dreumel,Wijk 06 Dreumel,Dreumel,West Maas en Waal,Gelderland,"
Talbotstraat 5 - 19 

Maria Austriastraat 54 - 126 

"
0,5038 BM,51.558399921483,5.08849504449,"
Telegraafstraat 2 - 62 

",013,5038,Binnenstad Oost,Binnenstad,Tilburg,Tilburg,Noord-Brabant,"
Talbotstraat 5 - 19 

Maria Austriastraat 54 - 126 

"
0,3038 BK,51.934912176222,4.4637980412983,"
Schieweg 174 - 184 

",010,3038,Bergpolder,Noord,Rotterdam,Rotterdam,Zuid-Holland,"
Talbotstraat 5 - 19 

Maria Austriastraat 54 - 126 

"
0,3083 NT,51.886318759924,4.4838838980944,"
Walchersestraat 100 - 118 

",010,3083,Carnisse,Charlois,Rotterdam,Rotterdam,Zuid-Holland,"
Talbotstraat 5 - 19 

Maria Austriastraat 54 - 126 

"
0,3023 AP,51.916361985976,4.450919163334,"
Vierambachtsstraat 40 - 60 

",010,3023,Nieuwe Westen,Delfshaven,Rotterdam,Rotterdam,Zuid-Holland,"
Talbotstraat 5 - 19 

Maria Austriastraat 54 - 126 

"
0,2513 EJ,52.078612479201,4.2990674462097,"
Veenkade 67 - 98 

",070,2513,Zeeheldenkwartier,Wijk 22 Zeeheldenkwartier,Den Haag,'s-Gravenhage,Zuid-Holland,"
Talbotstraat 5 - 19 

Maria Austriastraat 54 - 126 

"
0,3601 TB,52.148966803183,5.0434987249321,"
Piet Heinstraat 86 - 132 

",0346,3601,Zeeheldenbuurt,Wijk 01 Maarssen,Maarssen,Stichtse Vecht,Utrecht,"
Talbotstraat 5 - 19 

Maria Austriastraat 54 - 126 

"
0,1011 PG,52.367469338231,4.9023764442612,"
Waterlooplein 2 - 409 

",020,1011,Waterloopleinbuurt,Nieuwmarkt/Lastage,Amsterdam,Amsterdam,Noord-Holland,"
Talbotstraat 5 - 19 

Maria Austriastraat 54 - 126 

"
0,4225 NJ,51.882902805117,4.9279657303252,"
Overslingeland 1 - 15 

",0183,4225,Overslingeland,Wijk 07 Noordeloos,Noordeloos,Molenlanden,Zuid-Holland,"
Talbotstraat 5 - 19 

Maria Austriastraat 54 - 126 

"
0,2572 HB,52.061726925974,4.2919736084487,"
Vrijstaathof 2 - 42 

",070,2572,Transvaalkwartier-Zuid,Wijk 30 Transvaalkwartier,Den Haag,'s-Gravenhage,Zuid-Holland,"
Talbotstraat 5 - 19 

Maria Austriastraat 54 - 126 

"
0,4812 PG,51.578358634166,4.7520466813525,"
Heuvelstraat 3 - 29 

",076,4812,Princenhage,Breda West,Breda,Breda,Noord-Brabant,"
Talbotstraat 5 - 19 

Maria Austriastraat 54 - 126 

"
0,2516 XN,52.060303832991,4.3354210325468,"
Drijfriemstraat 67 - 103 

",070,2516,Noordpolderbuurt,Wijk 38 Laakkwartier en Spoorwijk,Den Haag,'s-Gravenhage,Zuid-Holland,"
Talbotstraat 5 - 19 

Maria Austriastraat 54 - 126 

"
0,3438 AA,52.037797293833,5.091720909474,"
Nedereindseweg 1 - 43 

",030,3438,Jutphaas Wijkersloot,Jutphaas Wijkersloot,Nieuwegein,Nieuwegein,Utrecht,"
Talbotstraat 5 - 19 

Maria Austriastraat 54 - 126 

"
0,3012 BB,51.913879311349,4.4785736552939,"
Schiedamsesingel 149 - 189 

",010,3012,Cool,Rotterdam Centrum,Rotterdam,Rotterdam,Zuid-Holland,"
Talbotstraat 5 - 19 

Maria Austriastraat 54 - 126 

"
0,3038 CD,51.933709230458,4.4645634537462,"
Bergselaan 271 - 281 

",010,3038,Bergpolder,Noord,Rotterdam,Rotterdam,Zuid-Holland,"
Talbotstraat 5 - 19 

Maria Austriastraat 54 - 126 

"
0,5233 BE,51.71378662355,5.3219027741591,"
Tweede Haren 71 - 111 

",073,5233,De Haren,Noord,'s-Hertogenbosch,'s-Hertogenbosch,Noord-Brabant,"
Talbotstraat 5 - 19 

Maria Austriastraat 54 - 126 

"
0,8011 MK,52.512554757106,6.0903240273793,"
Voorstraat 1 - 43 

",038,8011,Binnenstad-Zuid,Wijk 10 Binnenstad,Zwolle,Zwolle,Overijssel,"
Talbotstraat 5 - 19 

Maria Austriastraat 54 - 126 

"
0,1017 KV,52.361979596841,4.8913978067836,"
Prinsengracht 638 - 652 

",020,1017,Weteringbuurt,De Weteringschans,Amsterdam,Amsterdam,Noord-Holland,"
Talbotstraat 5 - 19 

Maria Austriastraat 54 - 126 

"
0,3816 TD,52.153011081504,5.4150314967229,"
Schuilenburgerplein 1 - 1 

",033,3816,Verdiweg,Wijk 13 Schuilenburg,Amersfoort,Amersfoort,Utrecht,"
Talbotstraat 5 - 19 

Maria Austriastraat 54 - 126 

"
0,3721 AT,52.125846601387,5.2004235149225,"
Prins Hendriklaan 28 - 76 

",030,3721,Bilthoven Zuid West,Bilthoven Zuid West,Bilthoven,De Bilt,Utrecht,"
Talbotstraat 5 - 19 

Maria Austriastraat 54 - 126 

"
0,1078 RT,52.347686345731,4.9110650856361,"
Amsteldijk 127 - 134 

",020,1078,IJselbuurt Oost,IJselbuurt,Amsterdam,Amsterdam,Noord-Holland,"
Talbotstraat 5 - 19 

Maria Austriastraat 54 - 126 

"
0,2013 PH,52.381464049173,4.6212083725724,"
Brouwersplein 31 - 45 

",023,2013,Leidsebuurt-west,Zijlwegkwartier,Haarlem,Haarlem,Noord-Holland,"
Talbotstraat 5 - 19 

Maria Austriastraat 54 - 126 

"
0,3769 AB,52.121101236719,5.2868769408335,"
Brouwersplein 31 - 45 

",0346,3769,Soesterberg Oost,Wijk 08 Soesterberg,Soesterberg,Soest,Utrecht,"
Banningstraat 2 - 8 

Zuiderweg 1 - 25 

"
0,5021 DM,51.54894468308,5.0977248874231,"
Blazoenstraat 2 - 40 

",013,5021,Fatima West,Fatima,Tilburg,Tilburg,Noord-Brabant,"
Banningstraat 2 - 8 

Zuiderweg 1 - 25 

"
0,9718 CE,53.218102246119,6.5565495448279,"
Westersingel 47 - 49 

",050,9718,Binnenstad-West,Centrum,Groningen,Groningen,Groningen,"
Banningstraat 2 - 8 

Zuiderweg 1 - 25 

"
0,9741 CZ,53.23053782478,6.5531489303295,"
Vindicatstraat 20 - 52 

",050,9741,Tuinwijk,Noordwest,Groningen,Groningen,Groningen,"
Banningstraat 2 - 8 

Zuiderweg 1 - 25 

"
0,5211 MT,51.688651177681,5.3108197141666,"
Hinthamerstraat 106 - 154 

",073,5211,Binnenstad-Oost,Binnenstad,'s-Hertogenbosch,'s-Hertogenbosch,Noord-Brabant,"
Banningstraat 2 - 8 

Zuiderweg 1 - 25 

"
0,1705 SR,52.645172042186,4.8059670861495,"
Keerkring 2 - 46 

",072,1705,Stad van de Zon,Wijk 17 Stad van de Zon,Heerhugowaard,Heerhugowaard,Noord-Holland,"
Banningstraat 2 - 8 

Zuiderweg 1 - 25 

"
0,2517 TS,52.082889605177,4.2791532053527,"
2e Schuytstraat 228 - 272 

",070,2517,Sweelinckplein en omgeving,Wijk 11 Duinoord,Den Haag,'s-Gravenhage,Zuid-Holland,"
Banningstraat 2 - 8 

Zuiderweg 1 - 25 

"
0,5501 EX,51.418542055239,5.4038903434051,"
De Bussels 30 - 58 

",040,5501,Cobbeek en Centrum,Wijk 00 Veldhoven,Veldhoven,Veldhoven,Noord-Brabant,"
Banningstraat 2 - 8 

Zuiderweg 1 - 25 

"
0,7555 DH,52.259959799959,6.7754421600026,"
Geerdinksweg 41 - 65 

",074,7555,Nijverheid,Wijk 06 Wilderinkshoek,Hengelo,Hengelo,Overijssel,"
Banningstraat 2 - 8 

Zuiderweg 1 - 25 

"
0,7607 PT,52.352021002612,6.6785080836533,"
Geerdinksweg 41 - 65 

",0546,7607,Paradijs,Wijk 17 Hofkamp,Almelo,Almelo,Overijssel,"
Laan van Iserlohn 1 - 1 

Laan van Kortrijk 2 - 133 

"
0,3033 GA,51.927547719871,4.4665727864434,"
Hoevestraat 3 - 23 

",010,3033,Provenierswijk,Noord,Rotterdam,Rotterdam,Zuid-Holland,"
Laan van Iserlohn 1 - 1 

Laan van Kortrijk 2 - 133 

"
0,1071 JG,52.353845743263,4.8724517241821,"
Cornelis Schuytstraat 45 - 69 

",020,1071,Cornelis Schuytbuurt,Museumkwartier,Amsterdam,Amsterdam,Noord-Holland,"
Laan van Iserlohn 1 - 1 

Laan van Kortrijk 2 - 133 

"
0,1071 GJ,52.357897974733,4.8747301682545,"
Van Eeghenstraat 44 - 60 

",020,1071,Concertgebouwbuurt,Museumkwartier,Amsterdam,Amsterdam,Noord-Holland,"
Laan van Iserlohn 1 - 1 

Laan van Kortrijk 2 - 133 

"
0,2512 PD,52.070462496578,4.2938551196974,"
Monstersestraat 122 - 164 

",070,2512,Schildersbuurt-West,Wijk 29 Schildersbuurt,Den Haag,'s-Gravenhage,Zuid-Holland,"
Laan van Iserlohn 1 - 1 

Laan van Kortrijk 2 - 133 

"
0,9711 NN,53.217753472279,6.5690435976775,"
Oosterstraat 1 - 25 

",050,9711,Binnenstad-Zuid,Centrum,Groningen,Groningen,Groningen,"
Laan van Iserlohn 1 - 1 

Laan van Kortrijk 2 - 133 

"
0,6224 GP,50.849929230786,5.7123645830922,"
Frankenstraat 175 - 207 

",043,6224,Wittevrouwenveld,Wijk 04 Buitenwijk Oost,Maastricht,Maastricht,Limburg,"
Laan van Iserlohn 1 - 1 

Laan van Kortrijk 2 - 133 

"
0,2563 RH,52.068353005011,4.2702577164283,"
Indigostraat 91 - 129 

",070,2563,Heesterbuurt,Wijk 20 Valkenboskwartier,Den Haag,'s-Gravenhage,Zuid-Holland,"
Laan van Iserlohn 1 - 1 

Laan van Kortrijk 2 - 133 

"
0,5216 BC,51.68266557922,5.3101068882667,"
Hertog Hendriksingel 50 - 72 

",073,5216,Zuid,Zuidoost,'s-Hertogenbosch,'s-Hertogenbosch,Noord-Brabant,"
Laan van Iserlohn 1 - 1 

Laan van Kortrijk 2 - 133 

"
0,2282 HD,52.048142444285,4.332511279279,"
Willem van Rijswijckstr 90 - 134 

",070,2282,Rembrandtkwartier,Wijk 02,Rijswijk,Rijswijk,Zuid-Holland,"
Laan van Iserlohn 1 - 1 

Laan van Kortrijk 2 - 133 

"
0,1501 CB,52.43924332439,4.8280018150426,"
Zuiddijk 27 - 63 

",075,1501,Burgemeestersbuurt,Wijk 11 Zaandam Zuid,Zaandam,Zaanstad,Noord-Holland,"
Laan van Iserlohn 1 - 1 

Laan van Kortrijk 2 - 133 

"
0,5213 CR,51.692580798426,5.3235611825347,"
Lagelandstraat 33 - 61 

",073,5213,De Hinthamerpoort,Graafsepoort,'s-Hertogenbosch,'s-Hertogenbosch,Noord-Brabant,"
Laan van Iserlohn 1 - 1 

Laan van Kortrijk 2 - 133 

"
0,4201 CL,51.829264298053,4.9755602744882,"
Kerksteeg 2 - 28 

",0183,4201,Benedenstad,Wijk 01 Gorinchem binnenstad,Gorinchem,Gorinchem,Zuid-Holland,"
Laan van Iserlohn 1 - 1 

Laan van Kortrijk 2 - 133 

"
0,8011 PL,52.510999980732,6.0916491598811,"
Papenstraat 1 - 40 

",038,8011,Binnenstad-Zuid,Wijk 10 Binnenstad,Zwolle,Zwolle,Overijssel,"
Laan van Iserlohn 1 - 1 

Laan van Kortrijk 2 - 133 

"
0,5044 JC,51.575820638689,5.0386578032425,"
Paletplein 19 - 57 

",013,5044,Kleurenbuurt Noord,Wandelbos Noord,Tilburg,Tilburg,Noord-Brabant,"
Laan van Iserlohn 1 - 1 

Laan van Kortrijk 2 - 133 

"
0,1098 TS,52.352081009494,4.9459317010081,"
Max Planckstraat 13 - 23 

",020,1098,Middenmeer Zuid,Middenmeer,Amsterdam,Amsterdam,Noord-Holland,"
Laan van Iserlohn 1 - 1 

Laan van Kortrijk 2 - 133 

"
0,2951 GN,51.86245996658,4.6614179884539,"
Plantageweg 1 - 45 

",078,2951,kerkbuurt,Wijk 01 Centrum,Alblasserdam,Alblasserdam,Zuid-Holland,"
Laan van Iserlohn 1 - 1 

Laan van Kortrijk 2 - 133 

"
0,2546 BL,52.060887903051,4.2738887873755,"
Driebergenstraat 2 - 46 

",070,2546,Leyenburg,Wijk 32 Leyenburg,Den Haag,'s-Gravenhage,Zuid-Holland,"
Laan van Iserlohn 1 - 1 

Laan van Kortrijk 2 - 133 

"
0,2566 DK,52.075724731563,4.2432267427378,"
Laan van Poot 388 - 398 

",070,2566,Vogelwijk,Wijk 13 Vogelwijk,Den Haag,'s-Gravenhage,Zuid-Holland,"
Laan van Iserlohn 1 - 1 

Laan van Kortrijk 2 - 133 

"
0,1091 BE,52.358765662076,4.9123806731455,"
Tilanusstraat 41 - 59 

",020,1091,Oosterparkbuurt Noordwest,Oosterparkbuurt,Amsterdam,Amsterdam,Noord-Holland,"
Laan van Iserlohn 1 - 1 

Laan van Kortrijk 2 - 133 

"
0,1017 NC,52.365801737081,4.8823259659334,"
Leidsegracht 59 - 95 

",020,1017,Leidsebuurt Noordwest,De Weteringschans,Amsterdam,Amsterdam,Noord-Holland,"
Laan van Iserlohn 1 - 1 

Laan van Kortrijk 2 - 133 

"
0,2613 BR,52.012002665364,4.3471693597378,"
Hof van Delftlaan 76 - 96 

",015,2613,Ministersbuurt-Oost,Wijk 13 Hof van Delft,Delft,Delft,Zuid-Holland,"
Laan van Iserlohn 1 - 1 

Laan van Kortrijk 2 - 133 

"
0,3571 XK,52.106806192627,5.1365148643454,"
Kapteynlaan 7 - 43 

",030,3571,Tuindorp-Oost,Wijk 04 Noordoost,Utrecht,Utrecht,Utrecht,"
Laan van Iserlohn 1 - 1 

Laan van Kortrijk 2 - 133 

"
0,1382 WB,52.310828297897,5.0368132306465,"
Jan Tooropstraat 101 - 603 

",0294,1382,Schildersbuurt,Noord,Weesp,Weesp,Noord-Holland,"
Laan van Iserlohn 1 - 1 

Laan van Kortrijk 2 - 133 

"
0,2042 HA,52.371153287286,4.5284298265555,"
Poststraat 2 - 14 

",023,2042,Centrum,Zandvoort Zuid,Zandvoort,Zandvoort,Noord-Holland,"
Laan van Iserlohn 1 - 1 

Laan van Kortrijk 2 - 133 

"
0,3732 HH,52.104040068358,5.1827209009452,"
Dorpsstraat vo Steenstraat 41 - 85 

",030,3732,De Bilt Oost,De Bilt Oost,De Bilt,De Bilt,Utrecht,"
Laan van Iserlohn 1 - 1 

Laan van Kortrijk 2 - 133 

"
0,1055 WE,52.378367411349,4.8615470011141,"
Jan den Haenstraat 16 - 26 

",020,1055,Landlust Zuid,Landlust,Amsterdam,Amsterdam,Noord-Holland,"
Laan van Iserlohn 1 - 1 

Laan van Kortrijk 2 - 133 

"
0,6211 AW,50.852591628091,5.6904884728603,"
Boschstraat 91 - 115 

",043,6211,Boschstraatkwartier,Wijk 00 Centrum,Maastricht,Maastricht,Limburg,"
Laan van Iserlohn 1 - 1 

Laan van Kortrijk 2 - 133 

"
0,1086 WE,52.359909830124,4.9821187178297,"
Thomas Hoodstraat 2 - 6 

",020,1086,Steigereiland Zuid,IJburg West,Amsterdam,Amsterdam,Noord-Holland,"
Laan van Iserlohn 1 - 1 

Laan van Kortrijk 2 - 133 

"
0,2951 BK,51.867001368137,4.6577773937287,"
Kastanjelaan 3 - 47 

",078,2951,Florabuurt,Wijk 03 Blokweer,Alblasserdam,Alblasserdam,Zuid-Holland,"
Laan van Iserlohn 1 - 1 

Laan van Kortrijk 2 - 133 

"
0,3011 PJ,51.922293366644,4.4913436566387,"
Hoogstraat 81 - 95 

",010,3011,Stadsdriehoek,Rotterdam Centrum,Rotterdam,Rotterdam,Zuid-Holland,"
Laan van Iserlohn 1 - 1 

Laan van Kortrijk 2 - 133 

"
0,3076 AX,51.879552940942,4.5250693614213,"
Zenostraat 124 - 180 

",010,3076,Lombardijen,IJsselmonde,Rotterdam,Rotterdam,Zuid-Holland,"
Laan van Iserlohn 1 - 1 

Laan van Kortrijk 2 - 133 

"
0,5632 TW,51.484612589991,5.4987481249219,"
Aalsbroek 1 - 24 

",040,5632,Heesterakker,Wijk 15 Stadsdeel Woensel-Noord,Eindhoven,Eindhoven,Noord-Brabant,"
Laan van Iserlohn 1 - 1 

Laan van Kortrijk 2 - 133 

"
0,2102 ZP,52.352401785527,4.6332274221074,"
Offenbachlaan 63 - 82 

",023,2102,Schouwbroekerpolder,Wijk 00 Heemstede-Centrum,Heemstede,Heemstede,Noord-Holland,"
Laan van Iserlohn 1 - 1 

Laan van Kortrijk 2 - 133 

"
0,2623 AJ,51.98784785424,4.3580486791511,"
Kalfjeslaan 36 - 70 

",015,2623,Bedrijventerrein Tanthof-Oost,Wijk 23 Tanthof-Oost,Delft,Delft,Zuid-Holland,"
Laan van Iserlohn 1 - 1 

Laan van Kortrijk 2 - 133 

"
0,1071 JK,52.35464541098,4.8714277085469,"
Cornelis Schuytstraat 36 - 44 

",020,1071,Cornelis Schuytbuurt,Museumkwartier,Amsterdam,Amsterdam,Noord-Holland,"
Laan van Iserlohn 1 - 1 

Laan van Kortrijk 2 - 133 

"
0,2584 HG,52.104413890327,4.278989565202,"
Badhuisstraat 109 - 161 

",070,2584,Visserijbuurt,Wijk 07 Scheveningen,Den Haag,'s-Gravenhage,Zuid-Holland,"
Laan van Iserlohn 1 - 1 

Laan van Kortrijk 2 - 133 

"
0,1506 GH,52.448782798497,4.8201155757715,"
Westzijde 234 - 260 

",075,1506,Oud West,Wijk 22 Zaandam West,Zaandam,Zaanstad,Noord-Holland,"
Laan van Iserlohn 1 - 1 

Laan van Kortrijk 2 - 133 

"
0,3527 ER,52.073074799357,5.0891052845949,"
Auriollaan 1 - 37 

",030,3527,Kanaleneiland-Noord,Wijk 08 Zuidwest,Utrecht,Utrecht,Utrecht,"
Laan van Iserlohn 1 - 1 

Laan van Kortrijk 2 - 133 

"
0,3712 AC,52.108258866168,5.2562841210101,"
Prins Alexanderweg 56 - 106 

",030,3712,Huis ter Heide-Zuid,"Wijk 05 Huis Ter Heide, Bosch en Duin",Huis ter Heide,Zeist,Utrecht,"
Laan van Iserlohn 1 - 1 

Laan van Kortrijk 2 - 133 

"
0,3553 VL,52.106947688872,5.0919367398642,"
Herman Modedstraat 2 - 38 

",030,3553,Julianapark en omgeving,Wijk 02 Noordwest,Utrecht,Utrecht,Utrecht,"
Laan van Iserlohn 1 - 1 

Laan van Kortrijk 2 - 133 

"
0,3551 TS,52.10133180518,5.0943727346646,"
Chrysantstraat 1 - 19 

",030,3551,"Egelantierstraat, Mariëndaalstraat e.o.",Wijk 02 Noordwest,Utrecht,Utrecht,Utrecht,"
Laan van Iserlohn 1 - 1 

Laan van Kortrijk 2 - 133 

"
0,3074 PT,51.890710689977,4.5124666881432,"
Van Malsenstraat 95 - 113 

",010,3074,Hillesluis,Feijenoord,Rotterdam,Rotterdam,Zuid-Holland,"
Laan van Iserlohn 1 - 1 

Laan van Kortrijk 2 - 133 

"
0,4813 AC,51.580452869986,4.7446248876614,"
Zuilenstraat 16 - 96 

",076,4813,Princenhage,Breda West,Breda,Breda,Noord-Brabant,"
Laan van Iserlohn 1 - 1 

Laan van Kortrijk 2 - 133 

"
0,5625 AM,51.469960606948,5.4726888636964,"
Genovevalaan 144 - 182 

",040,5625,Winkelcentrum,Wijk 15 Stadsdeel Woensel-Noord,Eindhoven,Eindhoven,Noord-Brabant,"
Laan van Iserlohn 1 - 1 

Laan van Kortrijk 2 - 133 

"
0,3077 CC,51.899601322477,4.5702238410572,"
Benedenrijweg 141 - 175 

",010,3077,Oud IJsselmonde,IJsselmonde,Rotterdam,Rotterdam,Zuid-Holland,"
Laan van Iserlohn 1 - 1 

Laan van Kortrijk 2 - 133 

"
0,6828 KG,51.978492406708,5.9179224990199,"
Boulevard Heuvelink 1 - 35 

",026,6828,Boulevardwijk,Spijkerkwartier,Arnhem,Arnhem,Gelderland,"
Laan van Iserlohn 1 - 1 

Laan van Kortrijk 2 - 133 

"
0,1012 SJ,52.37459549244,4.8911684432007,"
Nieuwezijds Voorburgwal 144 - 182 

",020,1012,Spuistraat Noord,Burgwallen-Nieuwe Zijde,Amsterdam,Amsterdam,Noord-Holland,"
Laan van Iserlohn 1 - 1 

Laan van Kortrijk 2 - 133 

"
0,4834 RT,51.569560944655,4.8084010433899,"
Walenburgstraat 90 - 148 

",076,4834,Ypelaar,Breda Zuid-Oost,Breda,Breda,Noord-Brabant,"
Laan van Iserlohn 1 - 1 

Laan van Kortrijk 2 - 133 

"
0,2624 AG,52.000952718668,4.3545201857555,"
Papsouwselaan 23 - 49 

",015,2624,Bedrijventerrein Voorhof,Wijk 24 Voorhof,Delft,Delft,Zuid-Holland,"
Laan van Iserlohn 1 - 1 

Laan van Kortrijk 2 - 133 

"
0,2281 BG,52.059442516721,4.3400927465452,"
Caan van Necklaan 187 - 219 

",070,2281,Cromvliet,Wijk 01,Rijswijk,Rijswijk,Zuid-Holland,"
Laan van Iserlohn 1 - 1 

Laan van Kortrijk 2 - 133 

"
0,9718 JJ,53.217390523867,6.5507550294115,"
Kraneweg 67 - 69 

",050,9718,Schildersbuurt,Oud-West,Groningen,Groningen,Groningen,"
Laan van Iserlohn 1 - 1 

Laan van Kortrijk 2 - 133 

"
0,1017 TT,52.361140124448,4.894931087369,"
Noorderstraat 69 - 139 

",020,1017,Weteringbuurt,De Weteringschans,Amsterdam,Amsterdam,Noord-Holland,"
Laan van Iserlohn 1 - 1 

Laan van Kortrijk 2 - 133 

"
0,4334 CH,51.499226851599,3.6011031193492,"
Park de Griffioen 1 - 107 

",0118,4334,Griffioen,Middelburg-Noord,Middelburg,Middelburg,Zeeland,"
Laan van Iserlohn 1 - 1 

Laan van Kortrijk 2 - 133 

"
0,2565 DM,52.082270555921,4.2714036015662,"
Segbroeklaan 54 - 102 

",070,2565,Bomenbuurt,Wijk 12 Bomen- en Bloemenbuurt,Den Haag,'s-Gravenhage,Zuid-Holland,"
Laan van Iserlohn 1 - 1 

Laan van Kortrijk 2 - 133 

"
0,2512 GD,52.073001173682,4.302684621188,"
Prinsegracht 118 - 134 

",070,2512,Zuidwal,Wijk 28 Centrum,Den Haag,'s-Gravenhage,Zuid-Holland,"
Laan van Iserlohn 1 - 1 

Laan van Kortrijk 2 - 133 

"
0,5642 NC,51.442688516399,5.5099227440801,"
Tongelresestraat 347 - 389 

",040,5642,Doornakkers-West,Wijk 13 Stadsdeel Tongelre,Eindhoven,Eindhoven,Noord-Brabant,"
Laan van Iserlohn 1 - 1 

Laan van Kortrijk 2 - 133 

"
0,5038 BH,51.557861095272,5.0866698239912,"
Willem II-straat 42 - 66 

",013,5038,Binnenstad Oost,Binnenstad,Tilburg,Tilburg,Noord-Brabant,"
Laan van Iserlohn 1 - 1 

Laan van Kortrijk 2 - 133 

"
0,2517 HX,52.085774157275,4.2816648038471,"
Stadhouderslaan 16 - 26 

",070,2517,Stadhoudersplantsoen,Wijk 11 Duinoord,Den Haag,'s-Gravenhage,Zuid-Holland,"
Laan van Iserlohn 1 - 1 

Laan van Kortrijk 2 - 133 

"
0,2587 RK,52.114907891482,4.2871511287982,"
Groningsestraat 2 - 16 

",070,2587,Belgisch Park,Wijk 02 Belgisch Park,Den Haag,'s-Gravenhage,Zuid-Holland,"
Laan van Iserlohn 1 - 1 

Laan van Kortrijk 2 - 133 

"
0,6221 BD,50.851513442892,5.7037373842361,"
Parallelweg 35 - 119 

",043,6221,Sint Maartenspoort,Wijk 00 Centrum,Maastricht,Maastricht,Limburg,"
Laan van Iserlohn 1 - 1 

Laan van Kortrijk 2 - 133 

"
0,3063 TM,51.907002591672,4.5205240405936,"
Buitenbassinweg 701 - 777 

",010,3063,De Esch,Kralingen-Crooswijk,Rotterdam,Rotterdam,Zuid-Holland,"
Laan van Iserlohn 1 - 1 

Laan van Kortrijk 2 - 133 

"
0,5508 SL,51.432125384657,5.3932047899177,"
Smelen 1 - 45 

",040,5508,De Kelen,Wijk 01 Noordelijk Woongebied,Veldhoven,Veldhoven,Noord-Brabant,"
Laan van Iserlohn 1 - 1 

Laan van Kortrijk 2 - 133 

"
0,1072 GK,52.352705279777,4.8917450909874,"
Ceintuurbaan 280 - 298 

",020,1072,Lizzy Ansinghbuurt,Nieuwe Pijp,Amsterdam,Amsterdam,Noord-Holland,"
Laan van Iserlohn 1 - 1 

Laan van Kortrijk 2 - 133 

"
0,1014 AE,52.386585397077,4.8462021712536,"
Spaarndammerdijk 667 - 715 

",020,1014,Woon- en Groengebied Sloterdijk,Sloterdijk,Amsterdam,Amsterdam,Noord-Holland,"
Laan van Iserlohn 1 - 1 

Laan van Kortrijk 2 - 133 

"
0,1091 TH,52.351593727991,4.91231005545,"
Marcusstraat 1 - 15 

",020,1091,Weesperzijde Midden/Zuid,Weesperzijde,Amsterdam,Amsterdam,Noord-Holland,"
Laan van Iserlohn 1 - 1 

Laan van Kortrijk 2 - 133 

"
0,5623 LD,51.459267296703,5.4774405291099,"
Veldmaarschalk Montgomerylaan 348 - 406 

",040,5623,Generalenbuurt,Wijk 14 Stadsdeel Woensel-Zuid,Eindhoven,Eindhoven,Noord-Brabant,"
Laan van Iserlohn 1 - 1 

Laan van Kortrijk 2 - 133 

"
0,8051 LN,52.470739931244,6.0597619849332,"
Randweg 2 - 38 

",038,8051,Hogenkamp en omgeving,Wijk 00 Hattem,Hattem,Hattem,Gelderland,"
Laan van Iserlohn 1 - 1 

Laan van Kortrijk 2 - 133 

"
0,3521 AV,52.083625934753,5.1079343008194,"
Groenmarktstraat 1 - 60 

",030,3521,Dichterswijk,Wijk 08 Zuidwest,Utrecht,Utrecht,Utrecht,"
Laan van Iserlohn 1 - 1 

Laan van Kortrijk 2 - 133 

"
0,1078 LC,52.344139689051,4.8929423770319,"
Geleenstraat 17 - 37 

",020,1078,Scheldebuurt West,Scheldebuurt,Amsterdam,Amsterdam,Noord-Holland,"
Laan van Iserlohn 1 - 1 

Laan van Kortrijk 2 - 133 

"
0,1053 DT,52.36832517186,4.8756177483395,"
Kinkerstraat 2 - 12 

",020,1053,Da Costabuurt Noord,Da Costabuurt,Amsterdam,Amsterdam,Noord-Holland,"
Laan van Iserlohn 1 - 1 

Laan van Kortrijk 2 - 133 

"
0,7001 BP,51.96634578615,6.2894690016743,"
Heezenstraat 19 - 43 

",0314,7001,Stadscentrum-Zuid,Wijk 01 Doetinchem Centrum,Doetinchem,Doetinchem,Gelderland,"
Laan van Iserlohn 1 - 1 

Laan van Kortrijk 2 - 133 

"
0,2311 HS,52.155756806922,4.4974781221347,"
Hogewoerd 84 - 96 

",071,2311,Levendaal-Oost,Binnenstad-Zuid,Leiden,Leiden,Zuid-Holland,"
Laan van Iserlohn 1 - 1 

Laan van Kortrijk 2 - 133 

"
0,2611 HX,52.014711252148,4.3524870336973,"
Dirklangenstraat 38 - 112 

",015,2611,Centrum-West,Wijk 11 Binnenstad,Delft,Delft,Zuid-Holland,"
Laan van Iserlohn 1 - 1 

Laan van Kortrijk 2 - 133 

"
0,9717 GV,53.224119586126,6.5514338710399,"
Baanstraat 2 - 46 

",050,9717,Noorderplantsoenbuurt,Oud-West,Groningen,Groningen,Groningen,"
Laan van Iserlohn 1 - 1 

Laan van Kortrijk 2 - 133 

"
0,1057 DK,52.368748815375,4.8520520322094,"
Hoofdweg 280 - 302 

",020,1057,Balboaplein e.o.,Hoofdweg e.o.,Amsterdam,Amsterdam,Noord-Holland,"
Laan van Iserlohn 1 - 1 

Laan van Kortrijk 2 - 133 

"
0,8012 BB,52.503347091525,6.1021068823442,"
Verenigingstraat 51 - 81 

",038,8012,Oud-Assendorp,Wijk 13 Assendorp,Zwolle,Zwolle,Overijssel,"
Laan van Iserlohn 1 - 1 

Laan van Kortrijk 2 - 133 

"
0,5611 TT,51.433176709255,5.4914019603658,"
Voorterweg 166 - 232 

",040,5611,Irisbuurt,Wijk 12 Stadsdeel Stratum,Eindhoven,Eindhoven,Noord-Brabant,"
Laan van Iserlohn 1 - 1 

Laan van Kortrijk 2 - 133 

"
0,3021 GJ,51.912727370718,4.4568982492635,"
Nieuwe Binnenweg 321 - 345 

",010,3021,Middelland,Delfshaven,Rotterdam,Rotterdam,Zuid-Holland,"
Laan van Iserlohn 1 - 1 

Laan van Kortrijk 2 - 133 

"
0,2573 VP,52.061496644872,4.2867741430972,"
Vierhoutenstraat 59 - 93 

",070,2573,Oostbroek-Zuid,Wijk 31 Rustenburg en Oostbroek,Den Haag,'s-Gravenhage,Zuid-Holland,"
Laan van Iserlohn 1 - 1 

Laan van Kortrijk 2 - 133 

"
0,1082 SJ,52.334165114997,4.8703019834448,"
Asingaborg 2 - 46 

",020,1082,Gelderlandpleinbuurt,Buitenveldert-West,Amsterdam,Amsterdam,Noord-Holland,"
Laan van Iserlohn 1 - 1 

Laan van Kortrijk 2 - 133 

"
0,2312 EZ,52.163905527215,4.481351046859,"
Morssingel 245 - 289 

",071,2312,Stationskwartier,Stationsdistrict,Leiden,Leiden,Zuid-Holland,"
Laan van Iserlohn 1 - 1 

Laan van Kortrijk 2 - 133 

"
0,1811 MT,52.62984994829,4.7548732015029,"
Luttik Oudorp 1 - 49 

",072,1811,Binnenstad-Oost,Centrum,Alkmaar,Alkmaar,Noord-Holland,"
Laan van Iserlohn 1 - 1 

Laan van Kortrijk 2 - 133 

"
0,1016 BB,52.368902306623,4.8871266673034,"
Herengracht 361 - 369 

",020,1016,Felix Meritisbuurt,Grachtengordel-West,Amsterdam,Amsterdam,Noord-Holland,"
Laan van Iserlohn 1 - 1 

Laan van Kortrijk 2 - 133 

"
0,2512 HV,52.07283514052,4.2970553095066,"
Schapenlaan 36 - 74 

",070,2512,Schildersbuurt-West,Wijk 29 Schildersbuurt,Den Haag,'s-Gravenhage,Zuid-Holland,"
Laan van Iserlohn 1 - 1 

Laan van Kortrijk 2 - 133 

"
0,1062 HE,52.356839241401,4.8374422521358,"
Schipluidenlaan 4 - 948 

",020,1062,Schipluidenbuurt,Westlandgracht,Amsterdam,Amsterdam,Noord-Holland,"
Laan van Iserlohn 1 - 1 

Laan van Kortrijk 2 - 133 

"
0,1112 NL,52.334221019063,4.9550867744457,"
Havikskruid 145 - 189 

",020,1112,Kruidenhof,Wijk 00 Diemen-Zuid,Diemen,Diemen,Noord-Holland,"
Laan van Iserlohn 1 - 1 

Laan van Kortrijk 2 - 133 

"
0,5341 GX,51.765196491655,5.5210031274122,"
Lievekamplaan 36 - 82 

",0412,5341,Centrum Zuid,Centrum,Oss,Oss,Noord-Brabant,"
Laan van Iserlohn 1 - 1 

Laan van Kortrijk 2 - 133 

"
0,1015 WH,52.375526607377,4.8774126275912,"
Marnixstraat 253 - 261 

",020,1015,Zaagpoortbuurt,Jordaan,Amsterdam,Amsterdam,Noord-Holland,"
Laan van Iserlohn 1 - 1 

Laan van Kortrijk 2 - 133 

"
0,1221 GJ,52.229558917492,5.1889947213863,"
Ampèrestraat 10 - 42 

",035,1221,Electrobuurt,Oost,Hilversum,Hilversum,Noord-Holland,"
Laan van Iserlohn 1 - 1 

Laan van Kortrijk 2 - 133 

"
0,3512 KA,52.089190165357,5.1252993556757,"
Herenstraat 1 - 21 

",030,3512,Nieuwegracht-Oost,Wijk 06 Binnenstad,Utrecht,Utrecht,Utrecht,"
Laan van Iserlohn 1 - 1 

Laan van Kortrijk 2 - 133 

"
0,1015 SC,52.376598216386,4.8820873097826,"
Tweede Egelantiersdwarsstraat 2 - 30 

",020,1015,Anjeliersbuurt Zuid,Jordaan,Amsterdam,Amsterdam,Noord-Holland,"
Laan van Iserlohn 1 - 1 

Laan van Kortrijk 2 - 133 

"
0,3532 CM,52.096071109476,5.0867627700298,"
Poelhekkestraat 1 - 29 

",030,3532,"Nieuw Engeland, Th. a. Kempisplantsoen en omgeving",Wijk 01 West,Utrecht,Utrecht,Utrecht,"
Laan van Iserlohn 1 - 1 

Laan van Kortrijk 2 - 133 

"
0,3446 JP,52.085790695126,4.9143692600078,"
Vierwoudstedenmeer 1 - 160 

",0348,3446,Waterrijk,Wijk 03 Woerden-Oost,Woerden,Woerden,Utrecht,"
Laan van Iserlohn 1 - 1 

Laan van Kortrijk 2 - 133 

"
0,3112 DJ,51.916729574225,4.4076450142726,"
Copernicusplein 1 - 13 

",010,3112,Natuurkundigenbuurt,Wijk 01 Oost,Schiedam,Schiedam,Zuid-Holland,"
Laan van Iserlohn 1 - 1 

Laan van Kortrijk 2 - 133 

"
0,4251 NT,51.80181393788,4.8709508999121,"
Bandijk 1 - 24 

",0183,4251,Bedrijventerreinen Werkendam,Wijk 01 Werkendam,Werkendam,Altena,Noord-Brabant,"
Laan van Iserlohn 1 - 1 

Laan van Kortrijk 2 - 133 

"
0,6431 HT,50.927530490511,5.9401495064351,"
Akerstraat-Noord 206 - 248 

",045,6431,De Dem en omgeving,Wijk 12 Hoensbroek-De Dem,Hoensbroek,Heerlen,Limburg,"
Laan van Iserlohn 1 - 1 

Laan van Kortrijk 2 - 133 

"
0,2243 AG,52.134925983996,4.3884482993136,"
Admiraal Helfrichlaan 1 - 17 

",070,2243,Drie Papegaaien,Wijk 00 Zuidwestelijk deel der gemeente,Wassenaar,Wassenaar,Zuid-Holland,"
Laan van Iserlohn 1 - 1 

Laan van Kortrijk 2 - 133 

"
0,5223 AZ,51.696223928836,5.2909460438503,"
Niels Bohrstraat 1 - 11 

",073,5223,Boschveld,West,'s-Hertogenbosch,'s-Hertogenbosch,Noord-Brabant,"
Laan van Iserlohn 1 - 1 

Laan van Kortrijk 2 - 133 

"
0,1052 JC,52.37516512533,4.8727885743177,"
Frederik Hendrikstraat 120 - 130 

",020,1052,Frederik Hendrikbuurt Zuidoost,Frederik Hendrikbuurt,Amsterdam,Amsterdam,Noord-Holland,"
Laan van Iserlohn 1 - 1 

Laan van Kortrijk 2 - 133 

"
0,3021 CV,51.919330356806,4.4629522334501,"
Henegouwerlaan 79 - 91 

",010,3021,Middelland,Delfshaven,Rotterdam,Rotterdam,Zuid-Holland,"
Laan van Iserlohn 1 - 1 

Laan van Kortrijk 2 - 133 

"
0,4814 AL,51.590167306503,4.7597735640735,"
Lunetstraat 54 - 96 

",076,4814,Tuinzigt,Breda West,Breda,Breda,Noord-Brabant,"
Laan van Iserlohn 1 - 1 

Laan van Kortrijk 2 - 133 

"
0,2522 RG,52.061146146673,4.3304672585759,"
Pasteurstraat 97 - 139 

",070,2522,Noordpolderbuurt,Wijk 38 Laakkwartier en Spoorwijk,Den Haag,'s-Gravenhage,Zuid-Holland,"
Laan van Iserlohn 1 - 1 

Laan van Kortrijk 2 - 133 

"
0,3083 TC,51.88684655601,4.4779673093963,"
Madeliefstraat 31 - 45 

",010,3083,Carnisse,Charlois,Rotterdam,Rotterdam,Zuid-Holland,"
Laan van Iserlohn 1 - 1 

Laan van Kortrijk 2 - 133 

"
0,1091 AW,52.359412978805,4.914480610291,"
Andreas Bonnstraat 13 - 25 

",020,1091,Oosterparkbuurt Noordwest,Oosterparkbuurt,Amsterdam,Amsterdam,Noord-Holland,"
Laan van Iserlohn 1 - 1 

Laan van Kortrijk 2 - 133 

"
0,6227 BP,50.840567946631,5.7273980456064,"
Dorpstraat 44 - 96 

",043,6227,Heer,Wijk 06 Buitenwijk Zuidoost,Maastricht,Maastricht,Limburg,"
Laan van Iserlohn 1 - 1 

Laan van Kortrijk 2 - 133 

"
0,1187 HH,52.285725722713,4.8332572255596,"
Henriëtte Bosmanslaan 1 - 31 

",020,1187,Betsy Perkbuurt,Bovenkerk - Westwijk Noord,Amstelveen,Amstelveen,Noord-Holland,"
Laan van Iserlohn 1 - 1 

Laan van Kortrijk 2 - 133 

"
0,1111 HZ,52.342656038073,4.95997873728,"
van Markenplantsoen 126 - 160 

",020,1111,Ruimzicht-West,Wijk 01 Diemen-Centrum,Diemen,Diemen,Noord-Holland,"
Laan van Iserlohn 1 - 1 

Laan van Kortrijk 2 - 133 

"
0,4331 CJ,51.501708657537,3.6114569881991,"
Korte Noordstraat 2 - 34 

",0118,4331,Binnenstad,Middelburg-Centrum,Middelburg,Middelburg,Zeeland,"
Laan van Iserlohn 1 - 1 

Laan van Kortrijk 2 - 133 

"
0,6211 NG,50.849341103366,5.6783315436523,"
Koningin Emmaplein 1 - 20 

",043,6211,Statenkwartier,Wijk 00 Centrum,Maastricht,Maastricht,Limburg,"
Laan van Iserlohn 1 - 1 

Laan van Kortrijk 2 - 133 

"
0,3811 HW,52.156407645843,5.3949665730006,"
Sint Janskerkhof 1 - 96 

",033,3811,Beestenmarkt,Wijk 01 Stadskern,Amersfoort,Amersfoort,Utrecht,"
Laan van Iserlohn 1 - 1 

Laan van Kortrijk 2 - 133 

"
0,2522 RB,52.062832022813,4.3291770794908,"
Pasteurplein 7 - 12 

",070,2522,Noordpolderbuurt,Wijk 38 Laakkwartier en Spoorwijk,Den Haag,'s-Gravenhage,Zuid-Holland,"
Laan van Iserlohn 1 - 1 

Laan van Kortrijk 2 - 133 

"
0,5211 NT,51.688750954302,5.3051506903355,"
Sint Annaplaats 2 - 43 

",073,5211,Binnenstad-Centrum,Binnenstad,'s-Hertogenbosch,'s-Hertogenbosch,Noord-Brabant,"
Laan van Iserlohn 1 - 1 

Laan van Kortrijk 2 - 133 

"
0,3607 DE,52.128048090168,5.0213943230865,"
Fazantenkamp 551 - 574 

",0346,3607,Fazantenkamp,Wijk 12 Maarssenbroek,Maarssen,Stichtse Vecht,Utrecht,"
Laan van Iserlohn 1 - 1 

Laan van Kortrijk 2 - 133 

"
0,5391 AS,51.724738183866,5.4351465287071,"
Dorpstraat 1 - 25 

",073,5391,Kom Nuland,Nuland,Nuland,'s-Hertogenbosch,Noord-Brabant,"
Laan van Iserlohn 1 - 1 

Laan van Kortrijk 2 - 133 

"
0,9727 CT,53.208695791981,6.5516666943105,"
Sabotagelaan 114 - 156 

",050,9727,Laanhuizen,Oud-Zuid,Groningen,Groningen,Groningen,"
Laan van Iserlohn 1 - 1 

Laan van Kortrijk 2 - 133 

"
0,2517 GB,52.083917633405,4.2882887498452,"
1e Sweelinckstraat 31 - 57 

",070,2517,Sweelinckplein en omgeving,Wijk 11 Duinoord,Den Haag,'s-Gravenhage,Zuid-Holland,"
Laan van Iserlohn 1 - 1 

Laan van Kortrijk 2 - 133 

"
0,1072 MK,52.357174550457,4.8917895203138,"
Marie Heinekenplein 101 - 315 

",020,1072,Gerard Doubuurt,Oude Pijp,Amsterdam,Amsterdam,Noord-Holland,"
Laan van Iserlohn 1 - 1 

Laan van Kortrijk 2 - 133 

"
0,5622 CW,51.460460869922,5.4630899900343,"
Alard du Hamelplaats 100 - 142 

",040,5622,Barrier,Wijk 14 Stadsdeel Woensel-Zuid,Eindhoven,Eindhoven,Noord-Brabant,"
Laan van Iserlohn 1 - 1 

Laan van Kortrijk 2 - 133 

"
0,2011 RW,52.381721953425,4.6376242754734,"
Jansstraat 64 - 89 

",023,2011,Bakenes,Oude Stad,Haarlem,Haarlem,Noord-Holland,"
Laan van Iserlohn 1 - 1 

Laan van Kortrijk 2 - 133 

"
0,1052 GA,52.379875683504,4.8746195906362,"
Fagelstraat 75 - 87 

",020,1052,Frederik Hendrikbuurt Noord,Frederik Hendrikbuurt,Amsterdam,Amsterdam,Noord-Holland,"
Laan van Iserlohn 1 - 1 

Laan van Kortrijk 2 - 133 

"
0,2311 VL,52.157919891332,4.4844044133402,"
Doelensteeg 1 - 17 

",071,2311,Academiewijk,Binnenstad-Zuid,Leiden,Leiden,Zuid-Holland,"
Laan van Iserlohn 1 - 1 

Laan van Kortrijk 2 - 133 

"
0,2802 JN,52.01019229855,4.7021685173055,"
Prins Hendrikstraat 130 - 208 

",0182,2802,De Korte Akkeren Oud,De Korte Akkeren,Gouda,Gouda,Zuid-Holland,"
Laan van Iserlohn 1 - 1 

Laan van Kortrijk 2 - 133 

"
0,1151 CX,52.445035907569,5.0039595517276,"
Overlekergouw 1 - 8 

",020,1151,Broek in Waterland,Wijk 03 Broek in Waterland,Broek in Waterland,Waterland,Noord-Holland,"
Laan van Iserlohn 1 - 1 

Laan van Kortrijk 2 - 133 

"
0,1181 KE,52.313864870229,4.8638959390014,"
Tholenseweg 2 - 38 

",020,1181,Vredeveldbuurt,Elsrijk,Amstelveen,Amstelveen,Noord-Holland,"
Laan van Iserlohn 1 - 1 

Laan van Kortrijk 2 - 133 

"
0,2022 PL,52.406724669481,4.6517938423176,"
Pontianakstraat 4 - 46 

",023,2022,Medanbuurt,Indischewijk,Haarlem,Haarlem,Noord-Holland,"
Laan van Iserlohn 1 - 1 

Laan van Kortrijk 2 - 133 

"
0,5328 AG,51.796397553234,5.3281139501066,"
Ossewei 1 - 22 

",0418,5328,Verspreide huizen Hurwenen en Rossum,Wijk 04 Rossum,Rossum,Maasdriel,Gelderland,"
Laan van Iserlohn 1 - 1 

Laan van Kortrijk 2 - 133 

"
0,2497 CL,52.038385888157,4.3671265114982,"
Rijswijkse Landingslaan 239 - 281 

",070,2497,Singels,Wijk 42 Ypenburg,Den Haag,'s-Gravenhage,Zuid-Holland,"
Laan van Iserlohn 1 - 1 

Laan van Kortrijk 2 - 133 

"
0,2596 BT,52.087749743523,4.3183146610591,"
Jan van Nassaustraat 10 - 42 

",070,2596,Nassaubuurt,Wijk 04 Benoordenhout,Den Haag,'s-Gravenhage,Zuid-Holland,"
Laan van Iserlohn 1 - 1 

Laan van Kortrijk 2 - 133 

"
0,2241 XA,52.14422131689,4.4147024129699,"
Gladiolusstraat 1 - 11 

",070,2241,Groot Deijleroord en Ter Weer,Wijk 01 Noordoostelijk deel der gemeente,Wassenaar,Wassenaar,Zuid-Holland,"
Laan van Iserlohn 1 - 1 

Laan van Kortrijk 2 - 133 

"
0,3511 ZL,52.08268807027,5.123589339722,"
Twijnstraat 24 - 48 

",030,3511,Lange Nieuwstraat en omgeving,Wijk 06 Binnenstad,Utrecht,Utrecht,Utrecht,"
Laan van Iserlohn 1 - 1 

Laan van Kortrijk 2 - 133 

"
0,1025 XG,52.397782481482,4.9432973839417,"
Dollardpad 1 - 50 

",020,1025,Buikslotermeerplein,Buikslotermeer,Amsterdam,Amsterdam,Noord-Holland,"
Laan van Iserlohn 1 - 1 

Laan van Kortrijk 2 - 133 

"
0,1017 NK,52.36255147879,4.8868226331394,"
Lange Leidsedwarsstraat 129 - 149 

",020,1017,Leidsebuurt Noordoost,De Weteringschans,Amsterdam,Amsterdam,Noord-Holland,"
Laan van Iserlohn 1 - 1 

Laan van Kortrijk 2 - 133 

"
0,7555 BJ,52.265292447545,6.7740725160969,"
Anthony van Leeuwenhoeklaan 2 - 24 

",074,7555,Woolde,Wijk 07 Woolde,Hengelo,Hengelo,Overijssel,"
Laan van Iserlohn 1 - 1 

Laan van Kortrijk 2 - 133 

"
0,6419 AA,50.883908913582,5.9693650463792,"
Douvenrade 1 - 100 

",045,6419,Welten-Dorp,Wijk 36 Welten-Benzenrade,Heerlen,Heerlen,Limburg,"
Laan van Iserlohn 1 - 1 

Laan van Kortrijk 2 - 133 

"
0,1504 BG,52.432454816348,4.8545036903332,"
Zuidervaart 95 - 117 

",075,1504,Poelenburg,Wijk 12 Poelenburg,Zaandam,Zaanstad,Noord-Holland,"
Laan van Iserlohn 1 - 1 

Laan van Kortrijk 2 - 133 

"
0,1221 BV,52.229165487174,5.1834169855414,"
Geuzenweg 50 - 96 

",035,1221,Geuzenbuurt,Oost,Hilversum,Hilversum,Noord-Holland,"
Laan van Iserlohn 1 - 1 

Laan van Kortrijk 2 - 133 

"
0,1071 NJ,52.354871418902,4.8731564541418,"
Johannes Verhulststraat 72 - 84 

",020,1071,Cornelis Schuytbuurt,Museumkwartier,Amsterdam,Amsterdam,Noord-Holland,"
Laan van Iserlohn 1 - 1 

Laan van Kortrijk 2 - 133 

"
0,2524 CP,52.05317743229,4.3168379310658,"
Ledeganckplein 1 - 18 

",070,2524,Laakkwartier-West,Wijk 38 Laakkwartier en Spoorwijk,Den Haag,'s-Gravenhage,Zuid-Holland,"
Laan van Iserlohn 1 - 1 

Laan van Kortrijk 2 - 133 

"
0,1972 PM,52.461395514067,4.6029710524106,"
Julianakade 2 - 38 

",0255,1972,Verzetsheldenbuurt,Wijk 01 IJmuiden-Noord,IJmuiden,Velsen,Noord-Holland,"
Laan van Iserlohn 1 - 1 

Laan van Kortrijk 2 - 133 

"
0,6413 CX,50.918629768998,5.9602141003116,"
Navolaan 2 - 18 

",045,6413,Heerlerheide Kom,Wijk 21 Heerlerheide-Passart,Heerlen,Heerlen,Limburg,"
Laan van Iserlohn 1 - 1 

Laan van Kortrijk 2 - 133 

"
0,3511 HV,52.083971478026,5.1177355662605,"
Hartingstraat 16 - 310 

",030,3511,Hooch Boulandt,Wijk 06 Binnenstad,Utrecht,Utrecht,Utrecht,"
Laan van Iserlohn 1 - 1 

Laan van Kortrijk 2 - 133 

"
0,2584 VS,52.10285002554,4.273756383034,"
Sloepstraat 23 - 53 

",070,2584,Oud Scheveningen,Wijk 07 Scheveningen,Den Haag,'s-Gravenhage,Zuid-Holland,"
Laan van Iserlohn 1 - 1 

Laan van Kortrijk 2 - 133 

"
0,3521 BL,52.085655767047,5.1076898777634,"
Croeselaan 91 - 163 

",030,3521,Hoog-Catharijne NS en Jaarbeurs,Wijk 06 Binnenstad,Utrecht,Utrecht,Utrecht,"
Laan van Iserlohn 1 - 1 

Laan van Kortrijk 2 - 133 

"
0,2585 BX,52.089638982085,4.2991541223614,"
Burgemeester Patijnlaan 462 - 500 

",070,2585,Archipelbuurt,Wijk 05 Archipelbuurt,Den Haag,'s-Gravenhage,Zuid-Holland,"
Laan van Iserlohn 1 - 1 

Laan van Kortrijk 2 - 133 

"
0,1074 AJ,52.35291012855,4.902940872455,"
Van Woustraat 141 - 151 

",020,1074,Willibrordusbuurt,Nieuwe Pijp,Amsterdam,Amsterdam,Noord-Holland,"
Laan van Iserlohn 1 - 1 

Laan van Kortrijk 2 - 133 

"
0,3061 RN,51.925362915583,4.5010943221214,"
Vredenoordlaan 46 - 56 

",010,3061,Kralingen West,Kralingen-Crooswijk,Rotterdam,Rotterdam,Zuid-Holland,"
Laan van Iserlohn 1 - 1 

Laan van Kortrijk 2 - 133 

"
0,2596 SG,52.09877374191,4.3193562909408,"
Van Stienhovenstraat 1 - 15 

",070,2596,Waalsdorp,Wijk 04 Benoordenhout,Den Haag,'s-Gravenhage,Zuid-Holland,"
Laan van Iserlohn 1 - 1 

Laan van Kortrijk 2 - 133 

"
0,2645 EZ,52.00527517897,4.391048866502,"
Gouden Rijderplein 41 - 100 

",015,2645,Emerald Centrum,Delfgauw,Delfgauw,Pijnacker-Nootdorp,Zuid-Holland,"
Laan van Iserlohn 1 - 1 

Laan van Kortrijk 2 - 133 

"
0,1082 KL,52.331335433912,4.8694184315762,"
Onstein 6 - 82 

",020,1082,Gelderlandpleinbuurt,Buitenveldert-West,Amsterdam,Amsterdam,Noord-Holland,"
Laan van Iserlohn 1 - 1 

Laan van Kortrijk 2 - 133 

"
0,2273 KT,52.07993384249,4.3534409028754,"
Bruijnings Ingenhoeslaan 94 - 140 

",070,2273,Bovenveen,Wijk 10 Bovenveen,Voorburg,Leidschendam-Voorburg,Zuid-Holland,"
Laan van Iserlohn 1 - 1 

Laan van Kortrijk 2 - 133 

"
0,4611 EB,51.498541026933,4.2866001151283,"
Drabbestraat 1 - 7 

",0164,4611,Vestinggronden-Noord,Wijk 00 Bergen op Zoom-Oude stad en omgeving,Bergen op Zoom,Bergen op Zoom,Noord-Brabant,"
Laan van Iserlohn 1 - 1 

Laan van Kortrijk 2 - 133 

"
0,5611 JA,51.436963287414,5.4715744419712,"
St Catharinastraat 1 - 13 

",040,5611,Bergen,Wijk 11 Stadsdeel Centrum,Eindhoven,Eindhoven,Noord-Brabant,"
Laan van Iserlohn 1 - 1 

Laan van Kortrijk 2 - 133 

"
0,6211 SM,50.852967454888,5.6881982082578,"
Bogaardenstraat 1 - 15 

",043,6211,Statenkwartier,Wijk 00 Centrum,Maastricht,Maastricht,Limburg,"
Laan van Iserlohn 1 - 1 

Laan van Kortrijk 2 - 133 

"
0,5613 CN,51.440531651705,5.4960065128181,"
Vinkenhofje 1 - 13 

",040,5613,Villapark,Wijk 13 Stadsdeel Tongelre,Eindhoven,Eindhoven,Noord-Brabant,"
Laan van Iserlohn 1 - 1 

Laan van Kortrijk 2 - 133 

"
0,6211 CD,50.85249149185,5.6936257732012,"
van Hasseltkade 20 - 24 

",043,6211,Boschstraatkwartier,Wijk 00 Centrum,Maastricht,Maastricht,Limburg,"
Laan van Iserlohn 1 - 1 

Laan van Kortrijk 2 - 133 

"
0,2532 EV,52.050236942626,4.301018235426,"
Erasmusplein 167 - 182 

",070,2532,Moerwijk-Oost,Wijk 36 Moerwijk,Den Haag,'s-Gravenhage,Zuid-Holland,"
Laan van Iserlohn 1 - 1 

Laan van Kortrijk 2 - 133 

"
0,2201 BG,52.229694665652,4.4425169855687,"
Beeklaan 86 - 120 

",071,2201,Beeklaan-kwartier,Wijk 00 Noordwijk-Binnen,Noordwijk,Noordwijk,Zuid-Holland,"
Laan van Iserlohn 1 - 1 

Laan van Kortrijk 2 - 133 

"
0,2584 BK,52.10592845693,4.2743128741076,"
Keizerstraat 38 - 74 

",070,2584,Scheveningen Badplaats,Wijk 07 Scheveningen,Den Haag,'s-Gravenhage,Zuid-Holland,"
Laan van Iserlohn 1 - 1 

Laan van Kortrijk 2 - 133 

"
0,1071 TS,52.353131971044,4.8831338673992,"
Roelof Hartplein 13 - 23 

",020,1071,Duivelseiland,Museumkwartier,Amsterdam,Amsterdam,Noord-Holland,"
Laan van Iserlohn 1 - 1 

Laan van Kortrijk 2 - 133 

"
0,4611 LX,51.493050651195,4.2855556576041,"
Lindebaan 2 - 80 

",0164,4611,Centrum,Wijk 00 Bergen op Zoom-Oude stad en omgeving,Bergen op Zoom,Bergen op Zoom,Noord-Brabant,"
Laan van Iserlohn 1 - 1 

Laan van Kortrijk 2 - 133 

"
0,2586 TR,52.111120736382,4.2822860653278,"
Dirk Hoogenraadstraat 212 - 228 

",070,2586,Scheveningen Badplaats,Wijk 07 Scheveningen,Den Haag,'s-Gravenhage,Zuid-Holland,"
Laan van Iserlohn 1 - 1 

Laan van Kortrijk 2 - 133 

"
0,1441 AS,52.50995070698,4.9440313030587,"
Westerstraat 2 - 74 

",0299,1441,Binnenstad,Wijk 01 Centrum,Purmerend,Purmerend,Noord-Holland,"
Laan van Iserlohn 1 - 1 

Laan van Kortrijk 2 - 133 

"
0,1058 CA,52.361317952513,4.8522351614262,"
Curaçaostraat 76 - 88 

",020,1058,Postjeskade e.o.,Westindische Buurt,Amsterdam,Amsterdam,Noord-Holland,"
Laan van Iserlohn 1 - 1 

Laan van Kortrijk 2 - 133 

"
0,3311 TK,51.818405159723,4.6720242034248,"
Nieuwkerkstraat 2 - 80 

",078,3311,Bleijenhoek,Wijk 02 Noordflank,Dordrecht,Dordrecht,Zuid-Holland,"
Laan van Iserlohn 1 - 1 

Laan van Kortrijk 2 - 133 

"
0,1087 KN,52.352158605075,5.002252539214,"
Julius Pergerstraat 1 - 139 

",020,1087,Haveneiland Noord,IJburg Zuid,Amsterdam,Amsterdam,Noord-Holland,"
Laan van Iserlohn 1 - 1 

Laan van Kortrijk 2 - 133 

"
0,9717 HP,53.2257658876,6.5523861311469,"
Zwarteweg 25 - 65 

",050,9717,Noorderplantsoenbuurt,Oud-West,Groningen,Groningen,Groningen,"
Laan van Iserlohn 1 - 1 

Laan van Kortrijk 2 - 133 

"
0,8151 AD,52.447284899496,6.34289810276,"
Kampfstraat 1 - 41 

",0572,8151,Lemelerveld kern oost,Lemelerveld,Lemelerveld,Dalfsen,Overijssel,"
Laan van Iserlohn 1 - 1 

Laan van Kortrijk 2 - 133 

"
0,3582 GH,52.07684847149,5.134904048454,"
Koningsweg 30 - 48 

",030,3582,L. Napoleonplantsoen en omgeving,Wijk 05 Oost,Utrecht,Utrecht,Utrecht,"
Laan van Iserlohn 1 - 1 

Laan van Kortrijk 2 - 133 

"
0,9713 GB,53.218869492963,6.5777367427514,"
Steentilkade 1 - 12 

",050,9713,Binnenstad-Oost,Centrum,Groningen,Groningen,Groningen,"
Laan van Iserlohn 1 - 1 

Laan van Kortrijk 2 - 133 

"
0,9718 TE,53.214007867797,6.5405561147764,"
Hoendiep 81 - 99 

",050,9718,Hoendiep,Nieuw-West,Groningen,Groningen,Groningen,"
Laan van Iserlohn 1 - 1 

Laan van Kortrijk 2 - 133 

"
0,5614 GL,51.425593099833,5.492442682387,"
Lupinestraat 1 - 55 

",040,5614,Joriskwartier,Wijk 12 Stadsdeel Stratum,Eindhoven,Eindhoven,Noord-Brabant,"
Laan van Iserlohn 1 - 1 

Laan van Kortrijk 2 - 133 

"
0,3752 BN,52.253513401393,5.3774332534326,"
Palingrokerssteeg 2 - 22 

",033,3752,Spakenburg,Wijk 00,Bunschoten-Spakenburg,Bunschoten,Utrecht,"
Laan van Iserlohn 1 - 1 

Laan van Kortrijk 2 - 133 

"
0,6224 LD,50.84490902292,5.7136587094571,"
Heerderweg 145 - 173 

",043,6224,Wyckerpoort,Wijk 04 Buitenwijk Oost,Maastricht,Maastricht,Limburg,"
Laan van Iserlohn 1 - 1 

Laan van Kortrijk 2 - 133 

"
0,2014 GA,52.367037388213,4.6082519703625,"
Van Leeuwenhoekstraat 2 - 36 

",023,2014,Natuurkundigenbuurt-west,Houtvaartkwartier,Haarlem,Haarlem,Noord-Holland,"
Laan van Iserlohn 1 - 1 

Laan van Kortrijk 2 - 133 

"
0,1057 HL,52.369677855362,4.8640955265301,"
Baarsjesweg 5 - 135 

",020,1057,Kortenaerkwartier,Chassébuurt,Amsterdam,Amsterdam,Noord-Holland,"
Laan van Iserlohn 1 - 1 

Laan van Kortrijk 2 - 133 

"
0,3082 LM,51.884988540253,4.4710322892182,"
Dorpsweg 189 - 205 

",010,3082,Oud Charlois,Charlois,Rotterdam,Rotterdam,Zuid-Holland,"
Laan van Iserlohn 1 - 1 

Laan van Kortrijk 2 - 133 

"
0,3038 JE,51.93795202892,4.4676764173368,"
Insulindestraat 61 - 75 

",010,3038,Bergpolder,Noord,Rotterdam,Rotterdam,Zuid-Holland,"
Laan van Iserlohn 1 - 1 

Laan van Kortrijk 2 - 133 

"
0,5616 GK,51.438705213981,5.4616407516728,"
Strijpsestraat 1 - 39 

",040,5616,"Eliasterrein, Vonderkwartier",Wijk 16 Stadsdeel Strijp,Eindhoven,Eindhoven,Noord-Brabant,"
Laan van Iserlohn 1 - 1 

Laan van Kortrijk 2 - 133 

"
0,5612 BG,51.447385691916,5.4762950775498,"
Veldmaarschalk Montgomerylaan 287 - 339 

",040,5612,Gildebuurt,Wijk 14 Stadsdeel Woensel-Zuid,Eindhoven,Eindhoven,Noord-Brabant,"
Laan van Iserlohn 1 - 1 

Laan van Kortrijk 2 - 133 

"
0,2565 JM,52.077486879177,4.2692704070621,"
Cederstraat 1 - 35 

",070,2565,Bomenbuurt,Wijk 12 Bomen- en Bloemenbuurt,Den Haag,'s-Gravenhage,Zuid-Holland,"
Laan van Iserlohn 1 - 1 

Laan van Kortrijk 2 - 133 

"
0,5361 HG,51.757942663872,5.7391784208719,"
Boreel de Mauregnaultstraat 1 - 26 

",0486,5361,Binnenstad-Grave,Wijk 00 Grave,Grave,Grave,Noord-Brabant,"
Laan van Iserlohn 1 - 1 

Laan van Kortrijk 2 - 133 

"
0,1019 CR,52.368006883505,4.9402515732976,"
Dick Greinerstraat 47 - 83 

",020,1019,Architectenbuurt,Oostelijk Havengebied,Amsterdam,Amsterdam,Noord-Holland,"
Laan van Iserlohn 1 - 1 

Laan van Kortrijk 2 - 133 

"
0,3021 EE,51.916212478048,4.4624979656812,"
's-Gravendijkwal 61 - 79 

",010,3021,Middelland,Delfshaven,Rotterdam,Rotterdam,Zuid-Holland,"
Laan van Iserlohn 1 - 1 

Laan van Kortrijk 2 - 133 

"
0,1187 DB,52.278341749444,4.8157954061743,"
Westhove 1 - 504 

",020,1187,Kastelenbuurt,Westwijk Zuid,Amstelveen,Amstelveen,Noord-Holland,"
Laan van Iserlohn 1 - 1 

Laan van Kortrijk 2 - 133 

"
0,6981 CA,52.01358632117,6.1328310568807,"
Bresstraat 1 - 17 

",0313,6981,De oude Stad binnen de gracht,Wijk 01,Doesburg,Doesburg,Gelderland,"
Laan van Iserlohn 1 - 1 

Laan van Kortrijk 2 - 133 

"
0,1087 DJ,52.359955591712,4.9939958753778,"
Daguerrestraat 113 - 226 

",020,1087,Haveneiland Noordwest,IJburg West,Amsterdam,Amsterdam,Noord-Holland,"
Laan van Iserlohn 1 - 1 

Laan van Kortrijk 2 - 133 

"
0,2597 AM,52.093742848148,4.3286383754363,"
Van Alkemadelaan 2 - 44 

",070,2597,Van Hoytemastraat en omgeving,Wijk 04 Benoordenhout,Den Haag,'s-Gravenhage,Zuid-Holland,"
Laan van Iserlohn 1 - 1 

Laan van Kortrijk 2 - 133 

"
0,3012 LB,51.915550949775,4.4748734287069,"
Eendrachtsweg 19 - 29 

",010,3012,Cool,Rotterdam Centrum,Rotterdam,Rotterdam,Zuid-Holland,"
Laan van Iserlohn 1 - 1 

Laan van Kortrijk 2 - 133 

"
0,2533 CM,52.056341647448,4.301213461984,"
Melis Stokelaan 1 - 35 

",070,2533,Moerwijk-Noord,Wijk 36 Moerwijk,Den Haag,'s-Gravenhage,Zuid-Holland,"
Laan van Iserlohn 1 - 1 

Laan van Kortrijk 2 - 133 

"
0,3708 CD,52.080882346933,5.2560037539262,"
Charlotte de Bourbonlaan 32 - 68 

",030,3708,Hoge Dennen,"Wijk 04 Zeist-Oost, Zeister Bos en omgeving",Zeist,Zeist,Utrecht,"
Laan van Iserlohn 1 - 1 

Laan van Kortrijk 2 - 133 

"
0,2281 BM,52.059156299639,4.3377241217783,"
Caan van Necklaan 70 - 108 

",070,2281,Cromvliet,Wijk 01,Rijswijk,Rijswijk,Zuid-Holland,"
Laan van Iserlohn 1 - 1 

Laan van Kortrijk 2 - 133 

"
0,5664 RR,51.417199432754,5.5637079515724,"
Kastanjehof 300 - 339 

",040,5664,Akert,Wijk 00 Geldrop,Geldrop,Geldrop-Mierlo,Noord-Brabant,"
Laan van Iserlohn 1 - 1 

Laan van Kortrijk 2 - 133 

"
0,3512 PV,52.08572470124,5.1256297157823,"
Groenestraat 1 - 110 

",030,3512,Lange Nieuwstraat en omgeving,Wijk 06 Binnenstad,Utrecht,Utrecht,Utrecht,"
Laan van Iserlohn 1 - 1 

Laan van Kortrijk 2 - 133 

"
0,2585 BA,52.088082485931,4.2990688353444,"
Burgemeester van Karnebeeklaan 1 - 19 

",070,2585,Archipelbuurt,Wijk 05 Archipelbuurt,Den Haag,'s-Gravenhage,Zuid-Holland,"
Laan van Iserlohn 1 - 1 

Laan van Kortrijk 2 - 133 

"
0,3561 CX,52.115803407244,5.1270432366248,"
Euterpedreef 61 - 80 

",030,3561,Wolga- en Donaudreef en omgeving,Wijk 03 Overvecht,Utrecht,Utrecht,Utrecht,"
Laan van Iserlohn 1 - 1 

Laan van Kortrijk 2 - 133 

"
0,2572 HX,52.064260144804,4.2959034007944,"
Boerenstraat 30 - 66 

",070,2572,Transvaalkwartier-Zuid,Wijk 30 Transvaalkwartier,Den Haag,'s-Gravenhage,Zuid-Holland,"
Laan van Iserlohn 1 - 1 

Laan van Kortrijk 2 - 133 

"
0,2597 RV,52.10418296518,4.3200780753732,"
Stalpertstraat 32 - 68 

",070,2597,Duinzigt,Wijk 04 Benoordenhout,Den Haag,'s-Gravenhage,Zuid-Holland,"
Laan van Iserlohn 1 - 1 

Laan van Kortrijk 2 - 133 

"
