,Postcode,latitude,longitude,Straat,Netnummer,Postcodenummer,Buurt,Wijk,Plaats,Gemeente,Provincie
0,4811 CA,51.5946317003,4.7885515477519,"
Ceresstraat 1 - 47 

",076,4811,Station,Breda Centrum,Breda,Breda,Noord-Brabant
0,9715 BT,53.2289473923,6.5620397852444,"
Riouwstraat 21 - 41 

",050,9715,Indische buurt,Oud-Noord,Groningen,Groningen,Groningen
0,1078 CE,52.34735288642,4.9000724389751,"
IJselstraat 71 - 85 

",020,1078,IJselbuurt West,IJselbuurt,Amsterdam,Amsterdam,Noord-Holland
0,2312 RK,52.161821209741,4.4992663273752,"
Oude Singel 240 - 366 

",071,2312,Noordvest,Binnenstad-Noord,Leiden,Leiden,Zuid-Holland
0,5611 EK,51.436664866736,5.4803051684457,"
Begijnenhof 1 - 35 

",040,5611,Binnenstad,Wijk 11 Stadsdeel Centrum,Eindhoven,Eindhoven,Noord-Brabant
0,6413 MA,50.914457738431,5.947753138732,"
Fossielenerf 2 - 96 

",045,6413,Groot Rennemig,Wijk 24 Rennemig-Beersdal,Heerlen,Heerlen,Limburg
0,3543 EN,52.101130891238,5.0459817513431,"
Ella Fitzgeraldplein 1 - 1005 

",030,3543,Terwijde-Oost,Wijk 09 Leidsche Rijn,Utrecht,Utrecht,Utrecht
0,6711 GZ,52.044337851501,5.6694113858924,"
Marktstraat 189 - 255 

",0318,6711,Centrum Ede,Ede-Oost,Ede,Ede,Gelderland
